{"type":"FeatureCollection","features":[{"type":"Feature","properties":{},"geometry":{"type":"MultiPolygon","coordinates":[[[[-80.866,-1.602],[-80.867,-1.599],[-80.871,-1.599],[-80.869,-1.591],[-80.86,-1.595],[-80.866,-1.602]]],[[[-79.907,-2.288],[-79.913,-2.292],[-79.914,-2.281],[-79.907,-2.288]]],[[[-79.92,-2.28],[-79.918,-2.306],[-79.938,-2.291],[-79.939,-2.286],[-79.933,-2.285],[-79.945,-2.267],[-79.933,-2.263],[-79.929,-2.274],[-79.92,-2.28]]],[[[-79.944,-2.259],[-79.941,-2.262],[-79.946,-2.267],[-79.934,-2.284],[-79.941,-2.287],[-79.929,-2.303],[-79.936,-2.3],[-79.947,-2.307],[-79.953,-2.315],[-79.972,-2.306],[-79.959,-2.29],[-79.974,-2.265],[-79.977,-2.253],[-79.965,-2.249],[-79.956,-2.234],[-79.939,-2.238],[-79.93,-2.249],[-79.933,-2.261],[-79.944,-2.259]]],[[[-79.931,-2.232],[-79.927,-2.233],[-79.925,-2.229],[-79.917,-2.226],[-79.913,-2.24],[-79.917,-2.247],[-79.911,-2.255],[-79.917,-2.277],[-79.925,-2.274],[-79.93,-2.267],[-79.926,-2.253],[-79.938,-2.235],[-79.931,-2.232]]],[[[-79.89,-2.439],[-79.887,-2.438],[-79.881,-2.45],[-79.895,-2.448],[-79.89,-2.439]]],[[[-80.096,-2.414],[-80.087,-2.413],[-80.085,-2.419],[-80.092,-2.42],[-80.096,-2.414]]],[[[-79.878,-2.415],[-79.889,-2.418],[-79.897,-2.416],[-79.892,-2.41],[-79.878,-2.415]]],[[[-80.085,-2.42],[-80.087,-2.412],[-80.094,-2.411],[-80.097,-2.414],[-80.1,-2.412],[-80.097,-2.407],[-80.087,-2.407],[-80.085,-2.401],[-80.074,-2.405],[-80.071,-2.414],[-80.08,-2.425],[-80.085,-2.42]]],[[[-79.919,-2.386],[-79.909,-2.384],[-79.913,-2.388],[-79.919,-2.386]]],[[[-79.919,-2.371],[-79.916,-2.37],[-79.916,-2.373],[-79.919,-2.371]]],[[[-79.933,-2.384],[-79.936,-2.378],[-79.928,-2.371],[-79.918,-2.374],[-79.922,-2.384],[-79.933,-2.384]]],[[[-79.95,-2.373],[-79.953,-2.373],[-79.948,-2.367],[-79.944,-2.369],[-79.94,-2.367],[-79.933,-2.371],[-79.937,-2.375],[-79.95,-2.373]]],[[[-79.938,-2.361],[-79.933,-2.368],[-79.938,-2.367],[-79.938,-2.361]]],[[[-79.905,-2.424],[-79.899,-2.422],[-79.897,-2.427],[-79.9,-2.431],[-79.905,-2.431],[-79.905,-2.424]]],[[[-80,-2.431],[-79.997,-2.421],[-80,-2.412],[-80.007,-2.408],[-80.004,-2.405],[-79.989,-2.411],[-79.974,-2.408],[-79.968,-2.418],[-79.962,-2.417],[-79.956,-2.411],[-79.933,-2.412],[-79.938,-2.421],[-79.938,-2.428],[-79.931,-2.433],[-79.933,-2.444],[-79.936,-2.445],[-79.949,-2.442],[-79.954,-2.436],[-79.967,-2.43],[-79.972,-2.43],[-79.975,-2.434],[-79.995,-2.436],[-79.998,-2.436],[-80,-2.431]]],[[[-79.906,-2.417],[-79.911,-2.431],[-79.924,-2.424],[-79.935,-2.427],[-79.929,-2.411],[-79.906,-2.417]]],[[[-79.961,-2.409],[-79.965,-2.416],[-79.969,-2.415],[-79.975,-2.405],[-79.968,-2.399],[-79.957,-2.406],[-79.961,-2.409]]],[[[-79.903,-2.399],[-79.9,-2.392],[-79.89,-2.403],[-79.891,-2.409],[-79.905,-2.422],[-79.905,-2.416],[-79.923,-2.408],[-79.916,-2.402],[-79.914,-2.394],[-79.91,-2.401],[-79.903,-2.399]]],[[[-79.921,-2.4],[-79.918,-2.399],[-79.921,-2.406],[-79.921,-2.4]]],[[[-79.913,-2.389],[-79.909,-2.392],[-79.913,-2.393],[-79.913,-2.389]]],[[[-80.001,-2.401],[-80.008,-2.402],[-80.011,-2.406],[-80.009,-2.415],[-80.001,-2.422],[-80.006,-2.425],[-80.015,-2.414],[-80.009,-2.397],[-80.01,-2.386],[-80.006,-2.386],[-80.004,-2.382],[-80.005,-2.365],[-79.997,-2.363],[-79.979,-2.368],[-79.973,-2.381],[-79.976,-2.385],[-79.97,-2.392],[-79.973,-2.399],[-79.985,-2.407],[-80.001,-2.401]]],[[[-79.943,-2.402],[-79.938,-2.407],[-79.939,-2.411],[-79.958,-2.409],[-79.957,-2.405],[-79.967,-2.397],[-79.96,-2.392],[-79.958,-2.384],[-79.952,-2.384],[-79.943,-2.402]]],[[[-79.941,-2.398],[-79.929,-2.4],[-79.926,-2.396],[-79.922,-2.403],[-79.93,-2.408],[-79.941,-2.398]]],[[[-79.923,-2.396],[-79.915,-2.389],[-79.918,-2.398],[-79.923,-2.396]]],[[[-79.925,-2.394],[-79.932,-2.386],[-79.921,-2.386],[-79.919,-2.391],[-79.925,-2.394]]],[[[-79.91,-2.399],[-79.912,-2.394],[-79.909,-2.391],[-79.909,-2.383],[-79.921,-2.384],[-79.918,-2.374],[-79.913,-2.378],[-79.9,-2.379],[-79.902,-2.395],[-79.91,-2.399]]],[[[-79.959,-2.382],[-79.962,-2.377],[-79.96,-2.373],[-79.938,-2.377],[-79.929,-2.396],[-79.939,-2.394],[-79.945,-2.397],[-79.949,-2.392],[-79.949,-2.386],[-79.959,-2.382]]],[[[-79.945,-2.35],[-79.952,-2.359],[-79.95,-2.367],[-79.955,-2.372],[-79.961,-2.37],[-79.964,-2.375],[-79.961,-2.386],[-79.963,-2.391],[-79.967,-2.392],[-79.974,-2.387],[-79.972,-2.379],[-79.98,-2.365],[-79.973,-2.36],[-79.968,-2.35],[-79.954,-2.335],[-79.95,-2.335],[-79.949,-2.343],[-79.939,-2.348],[-79.945,-2.35]]],[[[-79.948,-2.357],[-79.946,-2.354],[-79.943,-2.358],[-79.939,-2.357],[-79.94,-2.365],[-79.949,-2.365],[-79.951,-2.359],[-79.948,-2.357]]],[[[-80.018,-2.335],[-80.01,-2.333],[-80.006,-2.338],[-80.008,-2.343],[-80.023,-2.345],[-80.029,-2.338],[-80.027,-2.333],[-80.018,-2.335]]],[[[-79.939,-2.355],[-79.943,-2.356],[-79.945,-2.353],[-79.943,-2.35],[-79.938,-2.351],[-79.938,-2.347],[-79.949,-2.34],[-79.947,-2.335],[-79.943,-2.334],[-79.945,-2.327],[-79.936,-2.314],[-79.917,-2.317],[-79.913,-2.333],[-79.917,-2.344],[-79.913,-2.351],[-79.924,-2.36],[-79.92,-2.368],[-79.922,-2.371],[-79.93,-2.369],[-79.939,-2.355]]],[[[-79.971,-2.277],[-79.965,-2.291],[-79.972,-2.294],[-79.977,-2.306],[-79.96,-2.321],[-79.966,-2.331],[-79.976,-2.334],[-79.979,-2.332],[-79.98,-2.309],[-79.998,-2.296],[-79.989,-2.273],[-79.986,-2.275],[-79.977,-2.271],[-79.971,-2.277]]],[[[-79.788,-2.71],[-79.792,-2.707],[-79.792,-2.697],[-79.789,-2.695],[-79.783,-2.701],[-79.782,-2.707],[-79.788,-2.71]]],[[[-79.687,-2.509],[-79.683,-2.515],[-79.675,-2.518],[-79.669,-2.527],[-79.672,-2.535],[-79.683,-2.537],[-79.678,-2.543],[-79.68,-2.556],[-79.698,-2.573],[-79.722,-2.567],[-79.717,-2.561],[-79.696,-2.558],[-79.695,-2.547],[-79.704,-2.533],[-79.693,-2.527],[-79.693,-2.523],[-79.703,-2.519],[-79.701,-2.512],[-79.687,-2.509]]],[[[-79.728,-2.506],[-79.722,-2.505],[-79.703,-2.515],[-79.703,-2.521],[-79.693,-2.525],[-79.705,-2.532],[-79.702,-2.541],[-79.696,-2.547],[-79.699,-2.559],[-79.718,-2.559],[-79.726,-2.548],[-79.73,-2.537],[-79.728,-2.506]]],[[[-80.154,-2.554],[-80.156,-2.557],[-80.166,-2.551],[-80.178,-2.549],[-80.179,-2.546],[-80.169,-2.536],[-80.171,-2.53],[-80.179,-2.531],[-80.189,-2.521],[-80.188,-2.518],[-80.176,-2.514],[-80.175,-2.509],[-80.178,-2.507],[-80.173,-2.503],[-80.164,-2.503],[-80.162,-2.525],[-80.152,-2.54],[-80.154,-2.554]]],[[[-80.186,-2.516],[-80.2,-2.516],[-80.201,-2.51],[-80.194,-2.502],[-80.194,-2.495],[-80.186,-2.494],[-80.179,-2.497],[-80.178,-2.514],[-80.186,-2.516]]],[[[-80.18,-2.496],[-80.182,-2.494],[-80.179,-2.493],[-80.173,-2.497],[-80.172,-2.502],[-80.178,-2.504],[-80.18,-2.496]]],[[[-80.065,-2.57],[-80.051,-2.555],[-80.043,-2.554],[-80.047,-2.57],[-80.066,-2.574],[-80.065,-2.57]]],[[[-79.943,-2.518],[-79.931,-2.508],[-79.931,-2.487],[-79.923,-2.487],[-79.918,-2.494],[-79.909,-2.49],[-79.902,-2.492],[-79.894,-2.496],[-79.89,-2.505],[-79.892,-2.517],[-79.899,-2.521],[-79.904,-2.534],[-79.901,-2.54],[-79.902,-2.552],[-79.908,-2.559],[-79.908,-2.565],[-79.919,-2.577],[-79.918,-2.591],[-79.925,-2.591],[-79.937,-2.584],[-79.944,-2.549],[-79.963,-2.538],[-79.974,-2.541],[-79.982,-2.525],[-79.979,-2.513],[-79.943,-2.518]]],[[[-79.739,-2.519],[-79.751,-2.527],[-79.756,-2.527],[-79.743,-2.515],[-79.737,-2.515],[-79.739,-2.519]]],[[[-79.929,-2.476],[-79.908,-2.474],[-79.902,-2.47],[-79.886,-2.472],[-79.886,-2.466],[-79.882,-2.463],[-79.878,-2.473],[-79.878,-2.479],[-79.883,-2.481],[-79.887,-2.488],[-79.897,-2.489],[-79.899,-2.485],[-79.901,-2.49],[-79.909,-2.489],[-79.916,-2.494],[-79.922,-2.488],[-79.933,-2.487],[-79.932,-2.477],[-79.929,-2.476]]],[[[-79.811,-2.521],[-79.799,-2.532],[-79.806,-2.542],[-79.815,-2.526],[-79.814,-2.518],[-79.811,-2.521]]],[[[-80.188,-2.644],[-80.182,-2.646],[-80.186,-2.653],[-80.191,-2.656],[-80.2,-2.654],[-80.188,-2.644]]],[[[-80.188,-2.667],[-80.19,-2.664],[-80.179,-2.654],[-80.173,-2.653],[-80.172,-2.656],[-80.178,-2.663],[-80.188,-2.667]]],[[[-79.793,-2.601],[-79.783,-2.614],[-79.774,-2.619],[-79.771,-2.628],[-79.77,-2.636],[-79.785,-2.644],[-79.801,-2.635],[-79.801,-2.603],[-79.797,-2.595],[-79.793,-2.601]]],[[[-80.001,-2.64],[-80.005,-2.638],[-79.992,-2.634],[-79.995,-2.639],[-80.001,-2.64]]],[[[-80.069,-2.601],[-80.066,-2.604],[-80.067,-2.608],[-80.072,-2.603],[-80.069,-2.601]]],[[[-80.047,-2.616],[-80.029,-2.61],[-80.037,-2.617],[-80.047,-2.616]]],[[[-80.023,-2.623],[-80.022,-2.617],[-80.02,-2.619],[-80.023,-2.623]]],[[[-80.001,-2.628],[-80.011,-2.632],[-80.019,-2.629],[-80.016,-2.612],[-80.01,-2.605],[-79.994,-2.6],[-79.963,-2.61],[-79.962,-2.615],[-79.966,-2.62],[-80.001,-2.628]]],[[[-80.041,-2.612],[-80.047,-2.615],[-80.059,-2.612],[-80.063,-2.607],[-80.061,-2.599],[-80.053,-2.596],[-80.021,-2.595],[-80.024,-2.597],[-80.021,-2.601],[-80.029,-2.608],[-80.041,-2.612]]],[[[-79.938,-2.634],[-79.937,-2.653],[-79.938,-2.656],[-79.945,-2.658],[-79.971,-2.652],[-79.992,-2.651],[-80,-2.645],[-79.991,-2.636],[-79.965,-2.621],[-79.959,-2.609],[-79.953,-2.607],[-79.94,-2.61],[-79.938,-2.634]]],[[[-80.02,-2.601],[-80.023,-2.598],[-80.02,-2.593],[-80.013,-2.593],[-80.011,-2.596],[-80.013,-2.599],[-80.02,-2.601]]],[[[-79.751,-2.554],[-79.747,-2.556],[-79.748,-2.566],[-79.756,-2.572],[-79.755,-2.576],[-79.732,-2.585],[-79.726,-2.599],[-79.726,-2.61],[-79.753,-2.637],[-79.768,-2.636],[-79.773,-2.618],[-79.788,-2.608],[-79.797,-2.593],[-79.793,-2.57],[-79.784,-2.542],[-79.779,-2.537],[-79.774,-2.534],[-79.754,-2.533],[-79.734,-2.525],[-79.733,-2.543],[-79.721,-2.556],[-79.734,-2.58],[-79.754,-2.575],[-79.746,-2.565],[-79.746,-2.556],[-79.751,-2.554]]],[[[-79.848,-2.666],[-79.854,-2.666],[-79.866,-2.658],[-79.888,-2.653],[-79.889,-2.64],[-79.886,-2.621],[-79.883,-2.622],[-79.878,-2.588],[-79.864,-2.541],[-79.86,-2.498],[-79.854,-2.479],[-79.847,-2.47],[-79.839,-2.483],[-79.816,-2.55],[-79.835,-2.612],[-79.836,-2.654],[-79.848,-2.666]]],[[[-80.001,-2.593],[-80.066,-2.595],[-80.068,-2.591],[-80.061,-2.58],[-80.054,-2.58],[-80.045,-2.575],[-80.036,-2.557],[-80.025,-2.55],[-80.017,-2.532],[-80.015,-2.506],[-79.996,-2.491],[-79.987,-2.489],[-79.976,-2.493],[-79.969,-2.503],[-79.97,-2.508],[-79.981,-2.509],[-79.986,-2.516],[-79.98,-2.54],[-79.975,-2.545],[-79.963,-2.542],[-79.946,-2.554],[-79.943,-2.581],[-79.939,-2.589],[-79.929,-2.597],[-79.933,-2.601],[-79.961,-2.606],[-79.996,-2.597],[-79.993,-2.586],[-80.004,-2.575],[-80,-2.572],[-79.991,-2.576],[-79.979,-2.594],[-79.969,-2.595],[-79.98,-2.592],[-79.981,-2.586],[-79.988,-2.578],[-79.987,-2.569],[-79.982,-2.568],[-79.988,-2.568],[-79.991,-2.573],[-79.998,-2.569],[-80.005,-2.572],[-80.005,-2.578],[-79.995,-2.589],[-80.001,-2.593]]],[[[-80.14,-2.702],[-80.137,-2.697],[-80.126,-2.695],[-80.124,-2.697],[-80.129,-2.702],[-80.14,-2.702]]],[[[-79.918,-2.677],[-79.92,-2.671],[-79.911,-2.665],[-79.911,-2.681],[-79.918,-2.677]]],[[[-79.827,-2.487],[-79.833,-2.466],[-79.842,-2.45],[-79.838,-2.418],[-79.834,-2.41],[-79.821,-2.416],[-79.807,-2.44],[-79.803,-2.456],[-79.802,-2.49],[-79.783,-2.52],[-79.788,-2.527],[-79.795,-2.532],[-79.805,-2.526],[-79.827,-2.487]]],[[[-79.895,-2.451],[-79.881,-2.453],[-79.882,-2.461],[-79.887,-2.468],[-79.895,-2.468],[-79.895,-2.451]]],[[[-80.078,-2.464],[-80.075,-2.456],[-80.086,-2.45],[-80.088,-2.445],[-80.077,-2.425],[-80.071,-2.42],[-80.068,-2.413],[-80.071,-2.403],[-80.065,-2.392],[-80.048,-2.411],[-80.067,-2.463],[-80.077,-2.475],[-80.082,-2.475],[-80.086,-2.472],[-80.078,-2.464]]],[[[-79.932,-2.465],[-79.942,-2.476],[-79.944,-2.49],[-79.941,-2.501],[-79.947,-2.51],[-79.952,-2.509],[-79.962,-2.488],[-79.971,-2.479],[-79.998,-2.469],[-79.985,-2.457],[-79.98,-2.464],[-79.966,-2.463],[-79.969,-2.448],[-79.959,-2.436],[-79.951,-2.443],[-79.937,-2.447],[-79.929,-2.459],[-79.932,-2.465]]],[[[-79.999,-2.474],[-80.019,-2.49],[-80.028,-2.504],[-80.036,-2.5],[-80.032,-2.47],[-80.023,-2.447],[-80.026,-2.432],[-80.023,-2.428],[-80.004,-2.434],[-79.999,-2.439],[-79.975,-2.436],[-79.969,-2.432],[-79.961,-2.435],[-79.961,-2.44],[-79.97,-2.448],[-79.967,-2.462],[-79.979,-2.463],[-79.981,-2.458],[-79.987,-2.455],[-79.986,-2.459],[-79.999,-2.468],[-79.999,-2.474]]],[[[-79.889,-2.436],[-79.895,-2.44],[-79.9,-2.459],[-79.907,-2.466],[-79.922,-2.462],[-79.931,-2.445],[-79.93,-2.44],[-79.925,-2.437],[-79.924,-2.427],[-79.91,-2.433],[-79.895,-2.428],[-79.889,-2.436]]],[[[-80.209,-3.44],[-80.211,-3.436],[-80.207,-3.435],[-80.205,-3.438],[-80.209,-3.44]]],[[[-80.186,-3.439],[-80.194,-3.438],[-80.195,-3.435],[-80.187,-3.433],[-80.184,-3.435],[-80.186,-3.439]]],[[[-80.16,-3.425],[-80.155,-3.426],[-80.154,-3.431],[-80.162,-3.431],[-80.16,-3.425]]],[[[-80.043,-3.427],[-80.046,-3.429],[-80.046,-3.426],[-80.043,-3.427]]],[[[-80.169,-3.431],[-80.165,-3.432],[-80.167,-3.433],[-80.169,-3.433],[-80.169,-3.431]]],[[[-80.222,-3.432],[-80.228,-3.427],[-80.223,-3.426],[-80.209,-3.431],[-80.219,-3.434],[-80.222,-3.432]]],[[[-80.439,-3.175],[-80.434,-3.17],[-80.434,-3.173],[-80.439,-3.175]]],[[[-80.137,-2.865],[-80.144,-2.864],[-80.142,-2.855],[-80.133,-2.855],[-80.13,-2.844],[-80.125,-2.844],[-80.121,-2.849],[-80.124,-2.857],[-80.123,-2.866],[-80.13,-2.869],[-80.13,-2.875],[-80.133,-2.877],[-80.14,-2.866],[-80.137,-2.865]]],[[[-80.159,-2.888],[-80.157,-2.888],[-80.156,-2.892],[-80.158,-2.892],[-80.159,-2.888]]],[[[-80.157,-2.888],[-80.152,-2.884],[-80.156,-2.88],[-80.151,-2.879],[-80.151,-2.891],[-80.157,-2.888]]],[[[-80.111,-2.922],[-80.108,-2.92],[-80.108,-2.924],[-80.102,-2.918],[-80.108,-2.908],[-80.094,-2.91],[-80.09,-2.916],[-80.079,-2.921],[-80.083,-2.928],[-80.082,-2.935],[-80.085,-2.936],[-80.095,-2.933],[-80.11,-2.934],[-80.112,-2.918],[-80.108,-2.912],[-80.103,-2.92],[-80.106,-2.923],[-80.107,-2.92],[-80.111,-2.922]]],[[[-80.077,-2.924],[-80.079,-2.917],[-80.088,-2.915],[-80.094,-2.906],[-80.1,-2.905],[-80.104,-2.899],[-80.083,-2.901],[-80.068,-2.908],[-80.064,-2.914],[-80.066,-2.928],[-80.07,-2.932],[-80.079,-2.933],[-80.077,-2.924]]],[[[-80.078,-2.899],[-80.083,-2.898],[-80.082,-2.888],[-80.078,-2.884],[-80.082,-2.877],[-80.079,-2.884],[-80.083,-2.888],[-80.084,-2.899],[-80.101,-2.897],[-80.111,-2.878],[-80.109,-2.87],[-80.097,-2.866],[-80.095,-2.861],[-80.099,-2.853],[-80.095,-2.848],[-80.091,-2.848],[-80.084,-2.838],[-80.054,-2.87],[-80.05,-2.88],[-80.046,-2.882],[-80.045,-2.89],[-80.059,-2.913],[-80.062,-2.908],[-80.078,-2.899]]],[[[-80.156,-2.885],[-80.161,-2.882],[-80.161,-2.877],[-80.154,-2.882],[-80.156,-2.885]]],[[[-80.062,-2.86],[-80.069,-2.851],[-80.059,-2.842],[-80.048,-2.855],[-80.032,-2.863],[-80.031,-2.867],[-80.038,-2.874],[-80.044,-2.89],[-80.046,-2.881],[-80.054,-2.869],[-80.063,-2.862],[-80.062,-2.86]]],[[[-80.122,-2.866],[-80.12,-2.857],[-80.123,-2.854],[-80.118,-2.852],[-80.103,-2.855],[-80.103,-2.863],[-80.115,-2.873],[-80.112,-2.89],[-80.131,-2.878],[-80.13,-2.871],[-80.122,-2.866]]],[[[-80.023,-3.239],[-80.011,-3.262],[-80.017,-3.271],[-80.027,-3.281],[-80.042,-3.277],[-80.053,-3.282],[-80.061,-3.279],[-80.062,-3.287],[-80.067,-3.287],[-80.051,-3.252],[-80.046,-3.231],[-80.039,-3.218],[-80.029,-3.21],[-80.025,-3.213],[-80.026,-3.22],[-80.028,-3.219],[-80.024,-3.221],[-80.023,-3.239]]],[[[-80.131,-3.421],[-80.147,-3.431],[-80.154,-3.431],[-80.154,-3.427],[-80.142,-3.419],[-80.131,-3.421]]],[[[-80.264,-3.379],[-80.263,-3.378],[-80.26,-3.381],[-80.261,-3.382],[-80.264,-3.38],[-80.264,-3.379]]],[[[-80.015,-3.415],[-80.015,-3.412],[-80.011,-3.413],[-80.015,-3.415]]],[[[-80.233,-3.404],[-80.236,-3.413],[-80.249,-3.391],[-80.232,-3.399],[-80.233,-3.404]]],[[[-79.999,-3.388],[-80.003,-3.396],[-80.008,-3.392],[-80.014,-3.41],[-80.019,-3.411],[-80.018,-3.406],[-80.024,-3.412],[-80.027,-3.412],[-80.028,-3.406],[-80.033,-3.405],[-80.033,-3.397],[-80.043,-3.392],[-80.05,-3.396],[-80.057,-3.394],[-80.058,-3.391],[-80.055,-3.384],[-80.034,-3.371],[-80.025,-3.358],[-80.018,-3.372],[-80.009,-3.374],[-79.999,-3.388]]],[[[-80.106,-3.378],[-80.107,-3.382],[-80.103,-3.385],[-80.1,-3.382],[-80.107,-3.382],[-80.102,-3.379],[-80.103,-3.376],[-80.095,-3.375],[-80.083,-3.381],[-80.094,-3.394],[-80.088,-3.403],[-80.075,-3.395],[-80.068,-3.396],[-80.066,-3.399],[-80.07,-3.417],[-80.088,-3.417],[-80.104,-3.408],[-80.113,-3.385],[-80.122,-3.383],[-80.129,-3.388],[-80.121,-3.384],[-80.113,-3.386],[-80.109,-3.407],[-80.134,-3.408],[-80.154,-3.418],[-80.158,-3.418],[-80.165,-3.406],[-80.178,-3.395],[-80.189,-3.394],[-80.192,-3.389],[-80.192,-3.384],[-80.184,-3.382],[-80.187,-3.374],[-80.173,-3.364],[-80.171,-3.368],[-80.16,-3.373],[-80.151,-3.367],[-80.145,-3.37],[-80.141,-3.379],[-80.136,-3.378],[-80.134,-3.374],[-80.128,-3.376],[-80.128,-3.37],[-80.133,-3.366],[-80.127,-3.365],[-80.125,-3.361],[-80.128,-3.358],[-80.125,-3.347],[-80.118,-3.343],[-80.117,-3.346],[-80.11,-3.346],[-80.109,-3.35],[-80.102,-3.344],[-80.101,-3.338],[-80.097,-3.339],[-80.098,-3.349],[-80.09,-3.368],[-80.1,-3.368],[-80.098,-3.375],[-80.106,-3.378]]],[[[-80.252,-3.39],[-80.251,-3.394],[-80.256,-3.395],[-80.261,-3.389],[-80.26,-3.386],[-80.256,-3.386],[-80.252,-3.39]]],[[[-80.268,-3.374],[-80.265,-3.381],[-80.272,-3.378],[-80.272,-3.374],[-80.268,-3.374]]],[[[-80.1,-3.37],[-80.088,-3.37],[-80.089,-3.352],[-80.073,-3.355],[-80.087,-3.349],[-80.094,-3.35],[-80.093,-3.335],[-80.075,-3.33],[-80.07,-3.333],[-80.063,-3.332],[-80.059,-3.337],[-80.053,-3.335],[-80.05,-3.34],[-80.046,-3.335],[-80.039,-3.339],[-80.04,-3.349],[-80.033,-3.362],[-80.057,-3.38],[-80.065,-3.397],[-80.072,-3.394],[-80.087,-3.401],[-80.092,-3.392],[-80.084,-3.387],[-80.082,-3.381],[-80.084,-3.378],[-80.093,-3.377],[-80.1,-3.37]]],[[[-80.106,-3.346],[-80.11,-3.349],[-80.109,-3.345],[-80.116,-3.345],[-80.118,-3.338],[-80.1,-3.331],[-80.097,-3.337],[-80.102,-3.338],[-80.106,-3.346]]],[[[-80.237,-3.338],[-80.244,-3.344],[-80.24,-3.357],[-80.228,-3.37],[-80.216,-3.373],[-80.202,-3.404],[-80.196,-3.406],[-80.188,-3.399],[-80.181,-3.398],[-80.167,-3.409],[-80.165,-3.417],[-80.182,-3.421],[-80.187,-3.413],[-80.191,-3.413],[-80.218,-3.42],[-80.229,-3.418],[-80.232,-3.414],[-80.229,-3.405],[-80.23,-3.395],[-80.248,-3.383],[-80.254,-3.375],[-80.256,-3.363],[-80.264,-3.355],[-80.252,-3.334],[-80.239,-3.332],[-80.237,-3.338]]],[[[-80.259,-3.377],[-80.267,-3.368],[-80.264,-3.364],[-80.259,-3.377]]],[[[-80.31,-3.385],[-80.311,-3.382],[-80.295,-3.365],[-80.272,-3.326],[-80.267,-3.325],[-80.273,-3.333],[-80.273,-3.342],[-80.28,-3.345],[-80.284,-3.355],[-80.275,-3.371],[-80.273,-3.381],[-80.261,-3.385],[-80.259,-3.394],[-80.251,-3.394],[-80.239,-3.415],[-80.253,-3.405],[-80.283,-3.406],[-80.294,-3.397],[-80.296,-3.387],[-80.298,-3.39],[-80.293,-3.403],[-80.296,-3.402],[-80.304,-3.38],[-80.31,-3.382],[-80.31,-3.385]]],[[[-80.216,-3.336],[-80.21,-3.338],[-80.209,-3.345],[-80.205,-3.341],[-80.192,-3.34],[-80.181,-3.344],[-80.177,-3.34],[-80.166,-3.342],[-80.173,-3.36],[-80.188,-3.376],[-80.183,-3.381],[-80.188,-3.38],[-80.188,-3.384],[-80.192,-3.384],[-80.189,-3.394],[-80.195,-3.401],[-80.198,-3.4],[-80.206,-3.372],[-80.22,-3.356],[-80.222,-3.344],[-80.216,-3.336]]],[[[-80.227,-3.357],[-80.217,-3.372],[-80.229,-3.369],[-80.228,-3.366],[-80.239,-3.358],[-80.244,-3.346],[-80.236,-3.341],[-80.227,-3.357]]],[[[-80.158,-3.339],[-80.142,-3.334],[-80.131,-3.338],[-80.12,-3.333],[-80.12,-3.341],[-80.128,-3.348],[-80.131,-3.357],[-80.129,-3.363],[-80.134,-3.363],[-80.135,-3.366],[-80.129,-3.374],[-80.135,-3.373],[-80.141,-3.377],[-80.141,-3.37],[-80.148,-3.366],[-80.153,-3.365],[-80.162,-3.369],[-80.171,-3.363],[-80.161,-3.339],[-80.158,-3.339]]],[[[-80.11,-3.328],[-80.109,-3.323],[-80.08,-3.302],[-80.073,-3.291],[-80.061,-3.288],[-80.06,-3.281],[-80.052,-3.283],[-80.041,-3.278],[-80.028,-3.283],[-80.036,-3.308],[-80.039,-3.338],[-80.043,-3.334],[-80.05,-3.339],[-80.052,-3.334],[-80.058,-3.337],[-80.067,-3.33],[-80.079,-3.329],[-80.093,-3.333],[-80.099,-3.328],[-80.11,-3.328]]],[[[-80.148,-2.864],[-80.153,-2.862],[-80.153,-2.856],[-80.146,-2.852],[-80.148,-2.864]]],[[[-80.135,-2.846],[-80.14,-2.848],[-80.141,-2.848],[-80.142,-2.846],[-80.136,-2.845],[-80.135,-2.846]]],[[[-80.102,-2.852],[-80.119,-2.847],[-80.119,-2.843],[-80.115,-2.842],[-80.116,-2.836],[-80.097,-2.847],[-80.102,-2.852]]],[[[-80.094,-2.848],[-80.096,-2.843],[-80.102,-2.84],[-80.094,-2.835],[-80.089,-2.841],[-80.091,-2.848],[-80.094,-2.848]]],[[[-80.131,-2.836],[-80.129,-2.838],[-80.13,-2.84],[-80.132,-2.839],[-80.131,-2.836]]],[[[-80.27,-2.999],[-80.263,-2.961],[-80.262,-2.859],[-80.258,-2.852],[-80.257,-2.831],[-80.252,-2.829],[-80.236,-2.785],[-80.221,-2.77],[-80.217,-2.757],[-80.221,-2.739],[-80.215,-2.739],[-80.207,-2.731],[-80.189,-2.731],[-80.182,-2.728],[-80.179,-2.721],[-80.153,-2.718],[-80.136,-2.709],[-80.123,-2.707],[-80.111,-2.694],[-80.093,-2.687],[-80.076,-2.688],[-80.062,-2.679],[-80.038,-2.675],[-80.017,-2.679],[-79.998,-2.687],[-79.986,-2.693],[-79.968,-2.712],[-79.935,-2.722],[-79.928,-2.729],[-79.917,-2.732],[-79.911,-2.738],[-79.903,-2.739],[-79.9,-2.744],[-79.91,-2.775],[-79.928,-2.787],[-79.932,-2.793],[-79.966,-2.794],[-79.977,-2.804],[-79.993,-2.81],[-80.007,-2.826],[-80.011,-2.836],[-80.021,-2.844],[-80.022,-2.852],[-80.03,-2.86],[-80.047,-2.853],[-80.059,-2.841],[-80.071,-2.85],[-80.078,-2.84],[-80.092,-2.834],[-80.102,-2.838],[-80.109,-2.838],[-80.115,-2.834],[-80.119,-2.842],[-80.127,-2.836],[-80.136,-2.834],[-80.133,-2.838],[-80.136,-2.843],[-80.142,-2.843],[-80.144,-2.838],[-80.147,-2.84],[-80.144,-2.844],[-80.145,-2.851],[-80.149,-2.853],[-80.155,-2.851],[-80.156,-2.856],[-80.149,-2.87],[-80.154,-2.864],[-80.16,-2.863],[-80.162,-2.858],[-80.167,-2.858],[-80.161,-2.864],[-80.154,-2.865],[-80.15,-2.871],[-80.144,-2.872],[-80.142,-2.876],[-80.149,-2.884],[-80.152,-2.877],[-80.166,-2.876],[-80.158,-2.886],[-80.159,-2.893],[-80.151,-2.892],[-80.145,-2.881],[-80.138,-2.88],[-80.131,-2.895],[-80.117,-2.906],[-80.119,-2.929],[-80.113,-2.937],[-80.098,-2.943],[-80.094,-2.948],[-80.098,-2.973],[-80.107,-2.98],[-80.114,-2.998],[-80.119,-3],[-80.118,-3.004],[-80.124,-3.009],[-80.123,-3.02],[-80.155,-3.022],[-80.161,-3.019],[-80.164,-3.007],[-80.172,-3.012],[-80.172,-3.004],[-80.176,-2.998],[-80.179,-3],[-80.195,-2.995],[-80.198,-3],[-80.204,-3],[-80.205,-2.997],[-80.211,-2.999],[-80.211,-3.005],[-80.216,-3.006],[-80.217,-3.011],[-80.225,-3.015],[-80.229,-3.01],[-80.231,-3.013],[-80.228,-3.011],[-80.225,-3.016],[-80.22,-3.014],[-80.221,-3.011],[-80.218,-3.013],[-80.216,-3.009],[-80.213,-3.011],[-80.215,-3.006],[-80.211,-3.006],[-80.21,-2.999],[-80.2,-3],[-80.2,-3.003],[-80.194,-2.995],[-80.189,-3],[-80.175,-2.999],[-80.173,-3.013],[-80.17,-3.014],[-80.165,-3.008],[-80.164,-3.015],[-80.17,-3.018],[-80.171,-3.027],[-80.196,-3.041],[-80.228,-3.033],[-80.244,-3.033],[-80.253,-3.028],[-80.267,-3.017],[-80.27,-2.999]]],[[[-91.379,-0.384],[-91.377,-0.395],[-91.382,-0.399],[-91.386,-0.41],[-91.385,-0.419],[-91.394,-0.432],[-91.394,-0.435],[-91.39,-0.436],[-91.388,-0.456],[-91.398,-0.465],[-91.402,-0.475],[-91.417,-0.484],[-91.425,-0.493],[-91.492,-0.502],[-91.495,-0.506],[-91.508,-0.506],[-91.519,-0.503],[-91.521,-0.499],[-91.533,-0.499],[-91.547,-0.492],[-91.601,-0.486],[-91.603,-0.482],[-91.612,-0.478],[-91.611,-0.47],[-91.614,-0.463],[-91.626,-0.451],[-91.631,-0.432],[-91.647,-0.408],[-91.652,-0.39],[-91.653,-0.34],[-91.661,-0.323],[-91.661,-0.313],[-91.656,-0.305],[-91.645,-0.301],[-91.553,-0.296],[-91.533,-0.285],[-91.508,-0.283],[-91.488,-0.266],[-91.454,-0.263],[-91.447,-0.265],[-91.44,-0.275],[-91.427,-0.277],[-91.42,-0.286],[-91.409,-0.291],[-91.407,-0.302],[-91.393,-0.323],[-91.395,-0.33],[-91.388,-0.333],[-91.385,-0.339],[-91.388,-0.346],[-91.383,-0.346],[-91.381,-0.35],[-91.382,-0.379],[-91.379,-0.384]]],[[[-90.962,-0.388],[-90.962,-0.383],[-90.96,-0.384],[-90.962,-0.388]]],[[[-90.586,-0.37],[-90.584,-0.368],[-90.581,-0.37],[-90.583,-0.372],[-90.586,-0.37]]],[[[-90.552,-0.281],[-90.54,-0.283],[-90.547,-0.289],[-90.554,-0.286],[-90.558,-0.289],[-90.552,-0.281]]],[[[-90.565,-0.353],[-90.568,-0.351],[-90.567,-0.348],[-90.564,-0.35],[-90.565,-0.353]]],[[[-90.557,-0.344],[-90.561,-0.344],[-90.559,-0.342],[-90.558,-0.342],[-90.557,-0.344]]],[[[-90.576,-0.261],[-90.573,-0.269],[-90.574,-0.28],[-90.565,-0.285],[-90.566,-0.29],[-90.562,-0.294],[-90.551,-0.3],[-90.546,-0.319],[-90.559,-0.322],[-90.569,-0.331],[-90.567,-0.336],[-90.571,-0.338],[-90.57,-0.341],[-90.576,-0.349],[-90.579,-0.365],[-90.599,-0.375],[-90.613,-0.373],[-90.622,-0.368],[-90.631,-0.37],[-90.638,-0.365],[-90.654,-0.364],[-90.657,-0.356],[-90.662,-0.358],[-90.668,-0.354],[-90.67,-0.347],[-90.674,-0.349],[-90.675,-0.354],[-90.684,-0.352],[-90.695,-0.358],[-90.699,-0.354],[-90.707,-0.354],[-90.711,-0.359],[-90.72,-0.359],[-90.724,-0.355],[-90.732,-0.361],[-90.743,-0.36],[-90.748,-0.354],[-90.762,-0.349],[-90.771,-0.335],[-90.78,-0.339],[-90.785,-0.338],[-90.788,-0.328],[-90.795,-0.328],[-90.802,-0.335],[-90.81,-0.331],[-90.815,-0.332],[-90.821,-0.327],[-90.831,-0.332],[-90.833,-0.297],[-90.845,-0.291],[-90.843,-0.282],[-90.848,-0.275],[-90.855,-0.272],[-90.858,-0.275],[-90.87,-0.27],[-90.871,-0.267],[-90.867,-0.259],[-90.868,-0.245],[-90.861,-0.241],[-90.854,-0.242],[-90.85,-0.232],[-90.847,-0.232],[-90.845,-0.222],[-90.834,-0.213],[-90.829,-0.202],[-90.838,-0.178],[-90.827,-0.172],[-90.813,-0.154],[-90.79,-0.147],[-90.78,-0.147],[-90.767,-0.152],[-90.749,-0.151],[-90.739,-0.165],[-90.704,-0.172],[-90.697,-0.188],[-90.683,-0.187],[-90.677,-0.19],[-90.674,-0.196],[-90.668,-0.197],[-90.648,-0.196],[-90.645,-0.198],[-90.645,-0.204],[-90.635,-0.206],[-90.632,-0.21],[-90.623,-0.208],[-90.617,-0.216],[-90.604,-0.219],[-90.605,-0.224],[-90.6,-0.224],[-90.598,-0.228],[-90.588,-0.232],[-90.589,-0.236],[-90.583,-0.239],[-90.576,-0.261]]],[[[-90.649,-0.63],[-90.655,-0.63],[-90.657,-0.634],[-90.685,-0.622],[-90.688,-0.601],[-90.682,-0.592],[-90.671,-0.587],[-90.657,-0.592],[-90.655,-0.6],[-90.645,-0.607],[-90.642,-0.619],[-90.646,-0.621],[-90.649,-0.63]]],[[[-90.537,-0.563],[-90.539,-0.558],[-90.534,-0.56],[-90.537,-0.563]]],[[[-90.705,-0.427],[-90.711,-0.424],[-90.714,-0.426],[-90.72,-0.417],[-90.72,-0.412],[-90.712,-0.406],[-90.709,-0.399],[-90.697,-0.411],[-90.7,-0.42],[-90.706,-0.422],[-90.705,-0.427]]],[[[-90.436,0.361],[-90.419,0.346],[-90.401,0.322],[-90.408,0.307],[-90.418,0.296],[-90.429,0.29],[-90.471,0.277],[-90.482,0.277],[-90.503,0.288],[-90.51,0.301],[-90.521,0.302],[-90.54,0.314],[-90.538,0.321],[-90.543,0.345],[-90.54,0.354],[-90.529,0.369],[-90.515,0.374],[-90.508,0.38],[-90.488,0.387],[-90.478,0.387],[-90.475,0.384],[-90.461,0.385],[-90.452,0.377],[-90.446,0.366],[-90.439,0.365],[-90.436,0.361]]],[[[-90.728,0.592],[-90.719,0.566],[-90.718,0.555],[-90.723,0.54],[-90.732,0.545],[-90.739,0.545],[-90.742,0.541],[-90.751,0.546],[-90.76,0.545],[-90.78,0.554],[-90.784,0.562],[-90.782,0.566],[-90.784,0.586],[-90.79,0.6],[-90.787,0.612],[-90.788,0.627],[-90.781,0.642],[-90.779,0.644],[-90.763,0.64],[-90.756,0.625],[-90.748,0.621],[-90.738,0.605],[-90.73,0.599],[-90.728,0.592]]],[[[-92,1.674],[-92.008,1.679],[-91.999,1.68],[-92,1.674]]],[[[-91.82,1.397],[-91.823,1.397],[-91.823,1.399],[-91.82,1.397]]],[[[-91.824,1.374],[-91.818,1.379],[-91.821,1.391],[-91.817,1.394],[-91.817,1.387],[-91.811,1.381],[-91.814,1.376],[-91.824,1.374]]],[[[-90.864,-1.012],[-90.863,-1.021],[-90.867,-1.013],[-90.873,-1.01],[-90.879,-1.012],[-90.885,-1.02],[-90.877,-1.008],[-90.866,-1.009],[-90.864,-1.012]]],[[[-90.962,-0.976],[-90.962,-0.972],[-90.96,-0.97],[-90.96,-0.976],[-90.962,-0.976]]],[[[-90.779,-0.865],[-90.782,-0.868],[-90.782,-0.862],[-90.777,-0.86],[-90.772,-0.863],[-90.774,-0.867],[-90.779,-0.865]]],[[[-90.803,-0.85],[-90.801,-0.846],[-90.796,-0.848],[-90.799,-0.851],[-90.803,-0.85]]],[[[-90.81,-0.85],[-90.814,-0.85],[-90.811,-0.846],[-90.81,-0.85]]],[[[-91.59,0.001],[-91.588,0.006],[-91.575,0.008],[-91.564,0.018],[-91.554,0.018],[-91.549,0.024],[-91.535,0.027],[-91.521,0.036],[-91.517,0.046],[-91.509,0.051],[-91.504,0.064],[-91.498,0.065],[-91.497,0.075],[-91.491,0.078],[-91.494,0.084],[-91.49,0.098],[-91.473,0.107],[-91.466,0.106],[-91.454,0.111],[-91.452,0.108],[-91.442,0.107],[-91.419,0.118],[-91.41,0.118],[-91.4,0.126],[-91.392,0.124],[-91.387,0.126],[-91.385,0.134],[-91.379,0.135],[-91.379,0.139],[-91.371,0.145],[-91.361,0.163],[-91.354,0.158],[-91.348,0.16],[-91.348,0.163],[-91.336,0.16],[-91.338,0.157],[-91.326,0.137],[-91.312,0.133],[-91.304,0.117],[-91.304,0.105],[-91.298,0.085],[-91.294,0.083],[-91.293,0.075],[-91.287,0.068],[-91.29,0.061],[-91.284,0.06],[-91.278,0.054],[-91.274,0.043],[-91.258,0.03],[-91.257,0.025],[-91.25,0.024],[-91.24,0.015],[-91.238,0.006],[-91.226,0.003],[-91.217,-0.005],[-91.211,-0.021],[-91.207,-0.018],[-91.2,-0.021],[-91.195,-0.052],[-91.188,-0.068],[-91.189,-0.081],[-91.186,-0.083],[-91.188,-0.086],[-91.185,-0.093],[-91.189,-0.141],[-91.194,-0.151],[-91.189,-0.161],[-91.184,-0.202],[-91.174,-0.224],[-91.169,-0.225],[-91.149,-0.251],[-91.136,-0.26],[-91.136,-0.264],[-91.122,-0.269],[-91.116,-0.275],[-91.111,-0.285],[-91.112,-0.295],[-91.101,-0.299],[-91.1,-0.305],[-91.103,-0.307],[-91.109,-0.305],[-91.108,-0.31],[-91.081,-0.323],[-91.059,-0.34],[-91.044,-0.345],[-91.018,-0.366],[-91.011,-0.375],[-90.999,-0.383],[-90.996,-0.392],[-90.991,-0.394],[-90.982,-0.411],[-90.97,-0.419],[-90.964,-0.43],[-90.954,-0.423],[-90.948,-0.427],[-90.95,-0.434],[-90.955,-0.435],[-90.952,-0.445],[-90.955,-0.448],[-90.955,-0.455],[-90.947,-0.459],[-90.942,-0.475],[-90.944,-0.489],[-90.947,-0.492],[-90.943,-0.504],[-90.953,-0.516],[-90.949,-0.516],[-90.949,-0.542],[-90.956,-0.562],[-90.967,-0.563],[-90.978,-0.577],[-90.972,-0.577],[-90.973,-0.574],[-90.967,-0.576],[-90.962,-0.574],[-90.952,-0.581],[-90.96,-0.603],[-90.955,-0.605],[-90.958,-0.613],[-90.949,-0.62],[-90.945,-0.616],[-90.933,-0.627],[-90.928,-0.624],[-90.921,-0.627],[-90.909,-0.618],[-90.906,-0.612],[-90.902,-0.613],[-90.894,-0.608],[-90.893,-0.623],[-90.884,-0.625],[-90.881,-0.629],[-90.883,-0.641],[-90.88,-0.641],[-90.875,-0.65],[-90.869,-0.648],[-90.868,-0.653],[-90.862,-0.652],[-90.863,-0.655],[-90.855,-0.661],[-90.86,-0.666],[-90.86,-0.674],[-90.852,-0.676],[-90.849,-0.683],[-90.84,-0.683],[-90.853,-0.703],[-90.846,-0.708],[-90.837,-0.702],[-90.826,-0.706],[-90.822,-0.714],[-90.831,-0.72],[-90.829,-0.727],[-90.824,-0.723],[-90.818,-0.727],[-90.807,-0.725],[-90.806,-0.733],[-90.814,-0.735],[-90.814,-0.739],[-90.798,-0.744],[-90.793,-0.74],[-90.787,-0.742],[-90.788,-0.749],[-90.781,-0.757],[-90.781,-0.766],[-90.787,-0.771],[-90.792,-0.77],[-90.796,-0.782],[-90.802,-0.786],[-90.825,-0.791],[-90.823,-0.797],[-90.831,-0.822],[-90.829,-0.828],[-90.833,-0.833],[-90.84,-0.835],[-90.838,-0.858],[-90.846,-0.865],[-90.847,-0.874],[-90.844,-0.878],[-90.852,-0.884],[-90.846,-0.907],[-90.852,-0.917],[-90.861,-0.919],[-90.881,-0.915],[-90.885,-0.917],[-90.888,-0.92],[-90.888,-0.928],[-90.898,-0.939],[-90.905,-0.953],[-90.927,-0.959],[-90.929,-0.964],[-90.935,-0.962],[-90.942,-0.966],[-90.95,-0.96],[-90.959,-0.963],[-90.972,-0.957],[-90.985,-0.957],[-90.989,-0.962],[-90.995,-0.96],[-90.997,-0.971],[-91.019,-0.989],[-91.038,-0.991],[-91.04,-0.996],[-91.049,-0.998],[-91.05,-1.002],[-91.052,-0.998],[-91.061,-1.001],[-91.062,-1.012],[-91.071,-1.008],[-91.071,-1.005],[-91.078,-1.005],[-91.093,-1.011],[-91.097,-1.009],[-91.104,-1.015],[-91.111,-1.013],[-91.116,-1.019],[-91.123,-1.017],[-91.129,-1.025],[-91.137,-1.021],[-91.14,-1.032],[-91.155,-1.035],[-91.157,-1.038],[-91.163,-1.035],[-91.165,-1.037],[-91.161,-1.042],[-91.162,-1.048],[-91.169,-1.054],[-91.173,-1.054],[-91.183,-1.045],[-91.212,-1.047],[-91.229,-1.03],[-91.24,-1.033],[-91.25,-1.027],[-91.273,-1.025],[-91.292,-1.019],[-91.35,-1.016],[-91.38,-1.023],[-91.402,-1.018],[-91.407,-1.012],[-91.419,-1.012],[-91.425,-1.005],[-91.441,-1.001],[-91.447,-0.99],[-91.444,-0.975],[-91.447,-0.972],[-91.447,-0.96],[-91.455,-0.949],[-91.469,-0.948],[-91.486,-0.941],[-91.497,-0.928],[-91.5,-0.928],[-91.512,-0.908],[-91.512,-0.901],[-91.51,-0.882],[-91.5,-0.869],[-91.498,-0.859],[-91.487,-0.847],[-91.479,-0.844],[-91.47,-0.832],[-91.455,-0.822],[-91.434,-0.796],[-91.433,-0.788],[-91.417,-0.783],[-91.406,-0.769],[-91.385,-0.763],[-91.377,-0.755],[-91.375,-0.757],[-91.37,-0.754],[-91.368,-0.742],[-91.358,-0.739],[-91.338,-0.718],[-91.33,-0.718],[-91.327,-0.709],[-91.33,-0.701],[-91.32,-0.692],[-91.302,-0.696],[-91.291,-0.692],[-91.272,-0.694],[-91.266,-0.688],[-91.259,-0.688],[-91.256,-0.691],[-91.25,-0.689],[-91.249,-0.68],[-91.244,-0.676],[-91.226,-0.673],[-91.22,-0.669],[-91.213,-0.669],[-91.212,-0.674],[-91.206,-0.675],[-91.204,-0.679],[-91.189,-0.681],[-91.185,-0.691],[-91.176,-0.687],[-91.171,-0.689],[-91.165,-0.68],[-91.152,-0.677],[-91.141,-0.667],[-91.146,-0.665],[-91.143,-0.655],[-91.122,-0.653],[-91.117,-0.646],[-91.118,-0.64],[-91.114,-0.638],[-91.107,-0.637],[-91.106,-0.641],[-91.095,-0.642],[-91.089,-0.637],[-91.089,-0.628],[-91.079,-0.617],[-91.072,-0.616],[-91.08,-0.602],[-91.074,-0.596],[-91.083,-0.595],[-91.085,-0.587],[-91.096,-0.587],[-91.101,-0.572],[-91.131,-0.557],[-91.163,-0.528],[-91.175,-0.512],[-91.187,-0.508],[-91.21,-0.491],[-91.221,-0.477],[-91.228,-0.454],[-91.227,-0.411],[-91.223,-0.4],[-91.226,-0.393],[-91.236,-0.396],[-91.24,-0.392],[-91.239,-0.389],[-91.244,-0.389],[-91.245,-0.385],[-91.261,-0.383],[-91.285,-0.354],[-91.288,-0.355],[-91.29,-0.351],[-91.308,-0.345],[-91.314,-0.346],[-91.323,-0.342],[-91.324,-0.338],[-91.332,-0.336],[-91.338,-0.325],[-91.352,-0.313],[-91.358,-0.302],[-91.357,-0.294],[-91.365,-0.288],[-91.365,-0.277],[-91.371,-0.27],[-91.37,-0.259],[-91.378,-0.268],[-91.388,-0.26],[-91.387,-0.245],[-91.393,-0.234],[-91.393,-0.224],[-91.391,-0.211],[-91.381,-0.206],[-91.385,-0.192],[-91.404,-0.167],[-91.407,-0.136],[-91.403,-0.118],[-91.408,-0.075],[-91.405,-0.064],[-91.411,-0.049],[-91.41,-0.044],[-91.417,-0.038],[-91.419,-0.031],[-91.438,-0.018],[-91.455,-0.015],[-91.476,-0.016],[-91.506,-0.035],[-91.524,-0.041],[-91.534,-0.04],[-91.537,-0.044],[-91.545,-0.046],[-91.548,-0.052],[-91.551,-0.049],[-91.558,-0.049],[-91.561,-0.055],[-91.568,-0.049],[-91.569,-0.041],[-91.579,-0.023],[-91.582,-0.024],[-91.593,-0.013],[-91.59,0.001]]],[[[-90.298,-1.331],[-90.29,-1.33],[-90.294,-1.338],[-90.301,-1.336],[-90.298,-1.331]]],[[[-90.339,-1.313],[-90.34,-1.306],[-90.335,-1.305],[-90.34,-1.31],[-90.339,-1.313]]],[[[-89.682,-1.347],[-89.676,-1.349],[-89.67,-1.345],[-89.663,-1.346],[-89.661,-1.353],[-89.645,-1.36],[-89.641,-1.367],[-89.637,-1.365],[-89.632,-1.368],[-89.631,-1.376],[-89.627,-1.376],[-89.625,-1.38],[-89.627,-1.385],[-89.62,-1.388],[-89.621,-1.391],[-89.618,-1.393],[-89.626,-1.394],[-89.629,-1.4],[-89.626,-1.405],[-89.631,-1.411],[-89.637,-1.412],[-89.641,-1.406],[-89.646,-1.408],[-89.662,-1.404],[-89.669,-1.406],[-89.679,-1.401],[-89.687,-1.403],[-89.69,-1.395],[-89.704,-1.396],[-89.706,-1.392],[-89.733,-1.381],[-89.739,-1.374],[-89.744,-1.375],[-89.745,-1.37],[-89.739,-1.37],[-89.733,-1.36],[-89.725,-1.359],[-89.716,-1.352],[-89.704,-1.352],[-89.693,-1.346],[-89.686,-1.35],[-89.682,-1.347]]],[[[-89.646,-1.343],[-89.644,-1.339],[-89.639,-1.344],[-89.648,-1.348],[-89.646,-1.343]]],[[[-78.743,1.376],[-78.731,1.368],[-78.72,1.369],[-78.704,1.35],[-78.702,1.339],[-78.694,1.33],[-78.69,1.331],[-78.69,1.334],[-78.685,1.333],[-78.671,1.323],[-78.672,1.321],[-78.662,1.318],[-78.663,1.314],[-78.653,1.292],[-78.646,1.289],[-78.649,1.278],[-78.643,1.269],[-78.639,1.266],[-78.635,1.268],[-78.63,1.264],[-78.633,1.262],[-78.627,1.261],[-78.622,1.25],[-78.615,1.246],[-78.609,1.248],[-78.607,1.253],[-78.604,1.25],[-78.553,1.251],[-78.551,1.244],[-78.543,1.243],[-78.541,1.236],[-78.547,1.227],[-78.539,1.229],[-78.528,1.221],[-78.521,1.221],[-78.521,1.213],[-78.515,1.214],[-78.516,1.206],[-78.511,1.202],[-78.516,1.187],[-78.51,1.189],[-78.505,1.197],[-78.502,1.195],[-78.497,1.198],[-78.493,1.197],[-78.495,1.192],[-78.491,1.187],[-78.488,1.186],[-78.478,1.193],[-78.469,1.188],[-78.47,1.182],[-78.463,1.181],[-78.463,1.176],[-78.457,1.178],[-78.456,1.176],[-78.451,1.184],[-78.442,1.184],[-78.439,1.194],[-78.432,1.19],[-78.425,1.177],[-78.428,1.175],[-78.427,1.17],[-78.433,1.171],[-78.435,1.159],[-78.438,1.159],[-78.433,1.151],[-78.433,1.144],[-78.428,1.139],[-78.415,1.14],[-78.417,1.149],[-78.425,1.152],[-78.417,1.16],[-78.407,1.16],[-78.403,1.158],[-78.402,1.153],[-78.395,1.153],[-78.382,1.16],[-78.381,1.17],[-78.375,1.174],[-78.368,1.176],[-78.365,1.174],[-78.362,1.177],[-78.36,1.175],[-78.356,1.182],[-78.354,1.18],[-78.342,1.183],[-78.341,1.179],[-78.338,1.179],[-78.337,1.183],[-78.327,1.186],[-78.325,1.196],[-78.322,1.192],[-78.318,1.195],[-78.312,1.191],[-78.311,1.183],[-78.303,1.176],[-78.304,1.172],[-78.296,1.172],[-78.294,1.168],[-78.299,1.149],[-78.293,1.146],[-78.291,1.133],[-78.287,1.129],[-78.289,1.127],[-78.28,1.12],[-78.282,1.111],[-78.276,1.109],[-78.273,1.114],[-78.265,1.112],[-78.263,1.108],[-78.268,1.105],[-78.265,1.1],[-78.259,1.097],[-78.253,1.102],[-78.251,1.1],[-78.256,1.09],[-78.255,1.087],[-78.251,1.088],[-78.25,1.084],[-78.253,1.078],[-78.263,1.082],[-78.278,1.072],[-78.28,1.069],[-78.277,1.061],[-78.282,1.056],[-78.257,1.037],[-78.253,1.037],[-78.25,1.028],[-78.244,1.029],[-78.237,1.024],[-78.238,1.018],[-78.235,1.018],[-78.235,1.015],[-78.21,1.005],[-78.202,0.997],[-78.202,0.991],[-78.195,0.985],[-78.196,0.977],[-78.191,0.961],[-78.2,0.951],[-78.197,0.945],[-78.194,0.946],[-78.186,0.938],[-78.178,0.937],[-78.155,0.925],[-78.145,0.926],[-78.143,0.931],[-78.134,0.935],[-78.121,0.936],[-78.108,0.929],[-78.105,0.911],[-78.088,0.897],[-78.072,0.897],[-78.062,0.888],[-78.053,0.889],[-78.043,0.881],[-78.022,0.875],[-78.002,0.859],[-77.999,0.861],[-77.985,0.853],[-77.977,0.837],[-77.965,0.832],[-77.964,0.825],[-77.954,0.824],[-77.936,0.816],[-77.927,0.817],[-77.911,0.811],[-77.893,0.811],[-77.865,0.801],[-77.844,0.802],[-77.819,0.808],[-77.813,0.816],[-77.814,0.82],[-77.804,0.828],[-77.805,0.83],[-77.798,0.83],[-77.798,0.833],[-77.789,0.836],[-77.784,0.834],[-77.774,0.841],[-77.769,0.839],[-77.763,0.842],[-77.748,0.833],[-77.737,0.837],[-77.721,0.85],[-77.713,0.851],[-77.707,0.843],[-77.694,0.837],[-77.685,0.825],[-77.673,0.824],[-77.665,0.817],[-77.664,0.81],[-77.674,0.802],[-77.677,0.791],[-77.663,0.789],[-77.671,0.78],[-77.683,0.776],[-77.691,0.766],[-77.691,0.76],[-77.695,0.756],[-77.693,0.751],[-77.698,0.742],[-77.675,0.737],[-77.674,0.722],[-77.666,0.705],[-77.652,0.706],[-77.625,0.696],[-77.608,0.686],[-77.602,0.675],[-77.589,0.674],[-77.588,0.669],[-77.581,0.666],[-77.577,0.66],[-77.556,0.649],[-77.529,0.653],[-77.521,0.657],[-77.506,0.655],[-77.491,0.662],[-77.487,0.657],[-77.479,0.655],[-77.483,0.649],[-77.478,0.64],[-77.481,0.605],[-77.487,0.594],[-77.488,0.585],[-77.498,0.58],[-77.503,0.568],[-77.51,0.563],[-77.511,0.551],[-77.521,0.531],[-77.522,0.52],[-77.516,0.494],[-77.524,0.477],[-77.525,0.467],[-77.519,0.458],[-77.518,0.453],[-77.522,0.444],[-77.518,0.437],[-77.522,0.43],[-77.519,0.424],[-77.521,0.416],[-77.529,0.408],[-77.526,0.401],[-77.45,0.432],[-77.446,0.437],[-77.434,0.435],[-77.431,0.439],[-77.42,0.436],[-77.422,0.426],[-77.411,0.413],[-77.412,0.409],[-77.398,0.401],[-77.388,0.388],[-77.379,0.385],[-77.382,0.397],[-77.374,0.397],[-77.373,0.401],[-77.361,0.393],[-77.357,0.396],[-77.35,0.391],[-77.326,0.389],[-77.317,0.379],[-77.312,0.381],[-77.309,0.372],[-77.287,0.363],[-77.269,0.364],[-77.269,0.367],[-77.261,0.37],[-77.255,0.364],[-77.249,0.365],[-77.245,0.362],[-77.239,0.366],[-77.233,0.362],[-77.224,0.365],[-77.218,0.362],[-77.2,0.368],[-77.199,0.374],[-77.192,0.38],[-77.187,0.38],[-77.185,0.388],[-77.178,0.39],[-77.171,0.387],[-77.166,0.39],[-77.15,0.376],[-77.135,0.375],[-77.128,0.379],[-77.125,0.374],[-77.113,0.372],[-77.106,0.355],[-77.108,0.35],[-77.105,0.341],[-77.098,0.336],[-77.094,0.325],[-77.082,0.318],[-77.08,0.312],[-77.089,0.3],[-77.083,0.298],[-77.078,0.285],[-77.075,0.284],[-77.065,0.287],[-77.056,0.284],[-77.05,0.291],[-77.045,0.291],[-77.029,0.277],[-77.008,0.295],[-76.998,0.289],[-76.996,0.279],[-76.985,0.266],[-76.968,0.272],[-76.947,0.268],[-76.933,0.277],[-76.928,0.271],[-76.936,0.265],[-76.935,0.262],[-76.908,0.246],[-76.894,0.248],[-76.889,0.246],[-76.878,0.252],[-76.844,0.239],[-76.825,0.254],[-76.811,0.256],[-76.807,0.261],[-76.798,0.264],[-76.785,0.262],[-76.769,0.243],[-76.756,0.248],[-76.752,0.253],[-76.754,0.258],[-76.766,0.259],[-76.767,0.264],[-76.753,0.275],[-76.744,0.277],[-76.733,0.289],[-76.713,0.269],[-76.703,0.279],[-76.679,0.27],[-76.656,0.271],[-76.654,0.269],[-76.656,0.254],[-76.653,0.251],[-76.638,0.26],[-76.626,0.262],[-76.618,0.254],[-76.605,0.231],[-76.594,0.227],[-76.589,0.219],[-76.586,0.219],[-76.58,0.223],[-76.582,0.229],[-76.568,0.244],[-76.533,0.259],[-76.515,0.242],[-76.504,0.236],[-76.49,0.242],[-76.477,0.239],[-76.447,0.239],[-76.442,0.244],[-76.446,0.254],[-76.437,0.258],[-76.424,0.252],[-76.43,0.241],[-76.427,0.234],[-76.411,0.242],[-76.412,0.38],[-76.397,0.383],[-76.37,0.395],[-76.361,0.392],[-76.355,0.38],[-76.347,0.38],[-76.334,0.387],[-76.335,0.402],[-76.332,0.414],[-76.313,0.435],[-76.304,0.423],[-76.297,0.421],[-76.278,0.437],[-76.259,0.424],[-76.261,0.408],[-76.257,0.401],[-76.25,0.398],[-76.239,0.405],[-76.231,0.402],[-76.226,0.377],[-76.209,0.386],[-76.192,0.373],[-76.179,0.372],[-76.157,0.388],[-76.153,0.38],[-76.133,0.371],[-76.129,0.368],[-76.119,0.346],[-76.12,0.325],[-76.113,0.316],[-76.108,0.314],[-76.097,0.318],[-76.086,0.335],[-76.068,0.336],[-76.053,0.33],[-76.045,0.313],[-76.038,0.307],[-76.009,0.3],[-76.004,0.296],[-75.996,0.284],[-75.995,0.265],[-75.985,0.264],[-75.982,0.256],[-75.986,0.253],[-76.003,0.255],[-76.006,0.249],[-75.959,0.238],[-75.957,0.223],[-75.951,0.221],[-75.951,0.215],[-75.959,0.213],[-75.955,0.203],[-75.931,0.196],[-75.924,0.187],[-75.921,0.177],[-75.896,0.159],[-75.897,0.151],[-75.905,0.143],[-75.903,0.137],[-75.886,0.142],[-75.882,0.139],[-75.881,0.121],[-75.878,0.118],[-75.873,0.119],[-75.862,0.135],[-75.85,0.128],[-75.841,0.105],[-75.823,0.088],[-75.814,0.075],[-75.807,0.051],[-75.802,0.05],[-75.788,0.056],[-75.769,0.049],[-75.753,0.037],[-75.71,0.043],[-75.684,0.037],[-75.672,0.042],[-75.652,0.031],[-75.643,0.035],[-75.639,0.047],[-75.632,0.048],[-75.628,0.043],[-75.628,0.036],[-75.617,0.029],[-75.61,0.017],[-75.601,0.013],[-75.588,0.017],[-75.582,0.014],[-75.579,0.005],[-75.582,-0.018],[-75.575,-0.027],[-75.536,-0.018],[-75.53,-0.019],[-75.511,-0.037],[-75.49,-0.048],[-75.465,-0.052],[-75.452,-0.069],[-75.428,-0.086],[-75.393,-0.097],[-75.367,-0.091],[-75.355,-0.092],[-75.346,-0.095],[-75.34,-0.104],[-75.33,-0.107],[-75.298,-0.107],[-75.278,-0.124],[-75.273,-0.125],[-75.269,-0.125],[-75.258,-0.116],[-75.261,-0.128],[-75.277,-0.133],[-75.285,-0.141],[-75.29,-0.154],[-75.296,-0.148],[-75.305,-0.156],[-75.311,-0.156],[-75.316,-0.16],[-75.319,-0.157],[-75.323,-0.159],[-75.339,-0.155],[-75.353,-0.164],[-75.359,-0.159],[-75.353,-0.148],[-75.365,-0.146],[-75.369,-0.16],[-75.382,-0.166],[-75.382,-0.169],[-75.386,-0.165],[-75.397,-0.165],[-75.406,-0.17],[-75.418,-0.165],[-75.423,-0.157],[-75.426,-0.158],[-75.431,-0.153],[-75.441,-0.155],[-75.451,-0.153],[-75.45,-0.149],[-75.461,-0.151],[-75.466,-0.146],[-75.466,-0.141],[-75.475,-0.138],[-75.477,-0.134],[-75.484,-0.133],[-75.485,-0.13],[-75.496,-0.132],[-75.497,-0.129],[-75.504,-0.127],[-75.507,-0.117],[-75.509,-0.12],[-75.517,-0.114],[-75.526,-0.119],[-75.535,-0.118],[-75.536,-0.121],[-75.543,-0.116],[-75.542,-0.121],[-75.549,-0.124],[-75.552,-0.129],[-75.569,-0.131],[-75.569,-0.128],[-75.579,-0.12],[-75.59,-0.123],[-75.601,-0.11],[-75.606,-0.109],[-75.61,-0.113],[-75.61,-0.193],[-75.603,-0.19],[-75.59,-0.191],[-75.578,-0.178],[-75.571,-0.185],[-75.563,-0.185],[-75.55,-0.178],[-75.531,-0.181],[-75.53,-0.186],[-75.522,-0.194],[-75.514,-0.197],[-75.511,-0.212],[-75.499,-0.216],[-75.496,-0.226],[-75.482,-0.237],[-75.48,-0.264],[-75.472,-0.279],[-75.474,-0.297],[-75.465,-0.298],[-75.463,-0.318],[-75.459,-0.321],[-75.457,-0.329],[-75.445,-0.34],[-75.442,-0.353],[-75.432,-0.363],[-75.434,-0.367],[-75.425,-0.373],[-75.426,-0.378],[-75.42,-0.383],[-75.415,-0.396],[-75.403,-0.401],[-75.399,-0.409],[-75.39,-0.415],[-75.391,-0.425],[-75.385,-0.437],[-75.376,-0.438],[-75.37,-0.445],[-75.356,-0.447],[-75.354,-0.458],[-75.349,-0.464],[-75.337,-0.46],[-75.332,-0.452],[-75.326,-0.454],[-75.327,-0.46],[-75.316,-0.464],[-75.311,-0.474],[-75.314,-0.477],[-75.31,-0.48],[-75.315,-0.488],[-75.313,-0.495],[-75.31,-0.493],[-75.304,-0.495],[-75.301,-0.492],[-75.295,-0.506],[-75.28,-0.497],[-75.275,-0.503],[-75.271,-0.501],[-75.267,-0.508],[-75.273,-0.517],[-75.27,-0.523],[-75.264,-0.525],[-75.269,-0.529],[-75.264,-0.534],[-75.263,-0.529],[-75.254,-0.52],[-75.247,-0.518],[-75.247,-0.522],[-75.242,-0.524],[-75.244,-0.533],[-75.239,-0.539],[-75.244,-0.545],[-75.241,-0.549],[-75.231,-0.549],[-75.227,-0.56],[-75.23,-0.56],[-75.23,-0.565],[-75.226,-0.572],[-75.234,-0.58],[-75.24,-0.579],[-75.237,-0.584],[-75.24,-0.602],[-75.23,-0.603],[-75.227,-0.607],[-75.234,-0.608],[-75.233,-0.615],[-75.224,-0.622],[-75.224,-0.629],[-75.232,-0.63],[-75.234,-0.633],[-75.235,-0.641],[-75.232,-0.647],[-75.237,-0.647],[-75.238,-0.643],[-75.241,-0.645],[-75.246,-0.639],[-75.25,-0.641],[-75.248,-0.647],[-75.258,-0.644],[-75.258,-0.656],[-75.263,-0.655],[-75.274,-0.665],[-75.274,-0.674],[-75.249,-0.695],[-75.249,-0.7],[-75.27,-0.71],[-75.276,-0.731],[-75.268,-0.747],[-75.253,-0.764],[-75.257,-0.773],[-75.265,-0.778],[-75.269,-0.786],[-75.243,-0.797],[-75.242,-0.801],[-75.242,-0.813],[-75.252,-0.834],[-75.24,-0.855],[-75.225,-0.862],[-75.221,-0.869],[-75.224,-0.909],[-75.234,-0.934],[-75.216,-0.953],[-75.201,-0.959],[-75.193,-0.971],[-75.22,-0.971],[-75.237,-0.976],[-75.243,-0.983],[-75.26,-0.989],[-75.283,-0.984],[-75.314,-0.984],[-75.336,-0.96],[-75.372,-0.941],[-75.38,-0.931],[-75.384,-0.934],[-75.555,-1.547],[-75.559,-1.55],[-75.559,-1.563],[-75.564,-1.564],[-75.567,-1.557],[-75.575,-1.553],[-75.578,-1.547],[-75.585,-1.55],[-76.044,-2.125],[-76.621,-2.582],[-76.633,-2.591],[-77.436,-2.858],[-77.574,-2.908],[-77.812,-2.986],[-77.844,-3],[-77.839,-3.007],[-77.948,-3.07],[-77.948,-3.084],[-77.951,-3.09],[-77.962,-3.095],[-77.971,-3.118],[-77.983,-3.12],[-77.986,-3.134],[-78.011,-3.158],[-78.012,-3.167],[-78.008,-3.179],[-78.011,-3.191],[-78.036,-3.191],[-78.04,-3.196],[-78.041,-3.206],[-78.058,-3.21],[-78.064,-3.219],[-78.062,-3.224],[-78.065,-3.227],[-78.079,-3.226],[-78.09,-3.215],[-78.092,-3.216],[-78.089,-3.227],[-78.09,-3.241],[-78.099,-3.252],[-78.1,-3.261],[-78.111,-3.266],[-78.111,-3.272],[-78.107,-3.276],[-78.109,-3.279],[-78.17,-3.35],[-78.198,-3.363],[-78.181,-3.411],[-78.162,-3.416],[-78.157,-3.421],[-78.147,-3.463],[-78.148,-3.48],[-78.164,-3.484],[-78.186,-3.499],[-78.195,-3.502],[-78.203,-3.498],[-78.215,-3.508],[-78.229,-3.505],[-78.232,-3.501],[-78.231,-3.484],[-78.238,-3.449],[-78.244,-3.434],[-78.245,-3.4],[-78.278,-3.4],[-78.315,-3.395],[-78.331,-3.386],[-78.339,-3.371],[-78.35,-3.368],[-78.344,-3.392],[-78.356,-3.404],[-78.341,-3.427],[-78.345,-3.436],[-78.345,-3.448],[-78.359,-3.47],[-78.354,-3.481],[-78.355,-3.494],[-78.367,-3.514],[-78.365,-3.53],[-78.371,-3.542],[-78.376,-3.543],[-78.377,-3.549],[-78.388,-3.555],[-78.391,-3.56],[-78.386,-3.565],[-78.386,-3.574],[-78.39,-3.576],[-78.395,-3.588],[-78.393,-3.604],[-78.399,-3.605],[-78.4,-3.608],[-78.396,-3.616],[-78.398,-3.623],[-78.386,-3.64],[-78.401,-3.651],[-78.395,-3.66],[-78.399,-3.671],[-78.393,-3.677],[-78.401,-3.69],[-78.41,-3.691],[-78.416,-3.686],[-78.423,-3.691],[-78.423,-3.705],[-78.418,-3.709],[-78.417,-3.718],[-78.422,-3.723],[-78.41,-3.734],[-78.402,-3.735],[-78.409,-3.755],[-78.416,-3.765],[-78.409,-3.772],[-78.409,-3.782],[-78.414,-3.793],[-78.433,-3.814],[-78.437,-3.815],[-78.437,-3.819],[-78.453,-3.827],[-78.463,-3.825],[-78.466,-3.829],[-78.465,-3.832],[-78.461,-3.832],[-78.46,-3.838],[-78.462,-3.844],[-78.468,-3.845],[-78.477,-3.859],[-78.478,-3.882],[-78.48,-3.888],[-78.487,-3.892],[-78.485,-3.897],[-78.48,-3.897],[-78.479,-3.901],[-78.476,-3.901],[-78.476,-3.906],[-78.489,-3.934],[-78.525,-3.937],[-78.529,-3.95],[-78.543,-3.965],[-78.542,-3.973],[-78.561,-3.985],[-78.566,-3.993],[-78.566,-3.998],[-78.562,-4.001],[-78.57,-4.037],[-78.568,-4.045],[-78.563,-4.05],[-78.538,-4.061],[-78.541,-4.074],[-78.558,-4.089],[-78.563,-4.1],[-78.567,-4.1],[-78.581,-4.135],[-78.574,-4.171],[-78.579,-4.182],[-78.577,-4.196],[-78.593,-4.208],[-78.6,-4.209],[-78.608,-4.22],[-78.609,-4.234],[-78.606,-4.247],[-78.599,-4.258],[-78.611,-4.267],[-78.614,-4.284],[-78.618,-4.286],[-78.618,-4.294],[-78.634,-4.3],[-78.641,-4.306],[-78.646,-4.316],[-78.646,-4.325],[-78.652,-4.333],[-78.652,-4.339],[-78.648,-4.344],[-78.651,-4.352],[-78.639,-4.38],[-78.641,-4.401],[-78.634,-4.415],[-78.625,-4.418],[-78.622,-4.414],[-78.604,-4.412],[-78.6,-4.425],[-78.603,-4.431],[-78.615,-4.438],[-78.62,-4.437],[-78.624,-4.443],[-78.627,-4.457],[-78.634,-4.463],[-78.634,-4.475],[-78.639,-4.485],[-78.636,-4.501],[-78.648,-4.509],[-78.65,-4.517],[-78.66,-4.527],[-78.663,-4.537],[-78.657,-4.562],[-78.663,-4.57],[-78.656,-4.585],[-78.661,-4.586],[-78.668,-4.594],[-78.677,-4.592],[-78.681,-4.595],[-78.683,-4.6],[-78.696,-4.607],[-78.706,-4.624],[-78.754,-4.63],[-78.764,-4.633],[-78.768,-4.639],[-78.776,-4.643],[-78.785,-4.638],[-78.805,-4.638],[-78.843,-4.654],[-78.845,-4.659],[-78.856,-4.667],[-78.863,-4.679],[-78.864,-4.692],[-78.873,-4.703],[-78.889,-4.715],[-78.891,-4.722],[-78.889,-4.762],[-78.893,-4.77],[-78.915,-4.78],[-78.912,-4.79],[-78.903,-4.795],[-78.891,-4.809],[-78.896,-4.812],[-78.904,-4.835],[-78.915,-4.847],[-78.913,-4.857],[-78.902,-4.867],[-78.891,-4.872],[-78.893,-4.898],[-78.903,-4.899],[-78.914,-4.89],[-78.946,-4.898],[-78.955,-4.893],[-78.972,-4.894],[-78.986,-4.935],[-78.984,-4.942],[-78.988,-4.953],[-78.993,-4.957],[-78.992,-4.966],[-79.004,-4.984],[-79.009,-5.005],[-79.016,-5.014],[-79.028,-5.015],[-79.035,-5.014],[-79.056,-4.988],[-79.062,-4.986],[-79.07,-4.991],[-79.073,-4.973],[-79.076,-4.97],[-79.11,-4.979],[-79.114,-4.976],[-79.126,-4.976],[-79.142,-4.965],[-79.17,-4.965],[-79.17,-4.962],[-79.18,-4.96],[-79.19,-4.964],[-79.209,-4.963],[-79.212,-4.967],[-79.224,-4.964],[-79.266,-4.967],[-79.291,-4.939],[-79.306,-4.899],[-79.311,-4.897],[-79.312,-4.901],[-79.32,-4.901],[-79.331,-4.892],[-79.333,-4.885],[-79.344,-4.887],[-79.352,-4.88],[-79.355,-4.864],[-79.362,-4.852],[-79.361,-4.844],[-79.366,-4.837],[-79.375,-4.832],[-79.392,-4.833],[-79.399,-4.829],[-79.421,-4.794],[-79.431,-4.756],[-79.428,-4.749],[-79.43,-4.74],[-79.458,-4.702],[-79.46,-4.667],[-79.465,-4.66],[-79.463,-4.654],[-79.471,-4.639],[-79.489,-4.625],[-79.487,-4.619],[-79.493,-4.578],[-79.48,-4.573],[-79.477,-4.569],[-79.49,-4.527],[-79.496,-4.525],[-79.498,-4.52],[-79.514,-4.516],[-79.521,-4.527],[-79.524,-4.525],[-79.529,-4.529],[-79.529,-4.526],[-79.544,-4.525],[-79.55,-4.514],[-79.564,-4.513],[-79.564,-4.509],[-79.568,-4.509],[-79.571,-4.502],[-79.576,-4.504],[-79.581,-4.498],[-79.58,-4.487],[-79.593,-4.474],[-79.592,-4.469],[-79.598,-4.467],[-79.597,-4.461],[-79.601,-4.46],[-79.601,-4.456],[-79.609,-4.457],[-79.611,-4.451],[-79.616,-4.451],[-79.617,-4.446],[-79.629,-4.439],[-79.641,-4.438],[-79.644,-4.433],[-79.655,-4.434],[-79.675,-4.449],[-79.682,-4.448],[-79.689,-4.454],[-79.69,-4.46],[-79.705,-4.468],[-79.706,-4.472],[-79.715,-4.472],[-79.719,-4.468],[-79.745,-4.48],[-79.745,-4.483],[-79.754,-4.482],[-79.759,-4.486],[-79.792,-4.494],[-79.799,-4.489],[-79.814,-4.492],[-79.817,-4.486],[-79.838,-4.469],[-79.852,-4.453],[-79.855,-4.448],[-79.854,-4.434],[-79.869,-4.414],[-79.879,-4.412],[-79.919,-4.386],[-79.925,-4.393],[-79.952,-4.398],[-79.955,-4.393],[-79.964,-4.393],[-79.972,-4.388],[-79.979,-4.379],[-79.992,-4.381],[-80.009,-4.369],[-80.015,-4.357],[-80.029,-4.349],[-80.034,-4.35],[-80.039,-4.338],[-80.052,-4.331],[-80.061,-4.311],[-80.072,-4.31],[-80.084,-4.302],[-80.095,-4.299],[-80.104,-4.291],[-80.109,-4.294],[-80.109,-4.299],[-80.118,-4.295],[-80.136,-4.297],[-80.139,-4.293],[-80.135,-4.291],[-80.135,-4.285],[-80.144,-4.286],[-80.155,-4.304],[-80.166,-4.302],[-80.167,-4.29],[-80.172,-4.29],[-80.178,-4.295],[-80.187,-4.323],[-80.185,-4.334],[-80.204,-4.336],[-80.207,-4.341],[-80.201,-4.342],[-80.195,-4.35],[-80.211,-4.352],[-80.21,-4.357],[-80.214,-4.359],[-80.219,-4.353],[-80.218,-4.366],[-80.224,-4.371],[-80.22,-4.375],[-80.226,-4.379],[-80.229,-4.373],[-80.232,-4.373],[-80.237,-4.388],[-80.249,-4.391],[-80.249,-4.401],[-80.258,-4.402],[-80.263,-4.411],[-80.266,-4.412],[-80.276,-4.405],[-80.283,-4.407],[-80.287,-4.411],[-80.286,-4.416],[-80.297,-4.425],[-80.29,-4.436],[-80.303,-4.441],[-80.306,-4.45],[-80.32,-4.452],[-80.329,-4.465],[-80.356,-4.473],[-80.365,-4.481],[-80.382,-4.478],[-80.388,-4.486],[-80.394,-4.484],[-80.397,-4.481],[-80.396,-4.476],[-80.411,-4.464],[-80.414,-4.465],[-80.415,-4.461],[-80.42,-4.461],[-80.421,-4.467],[-80.425,-4.463],[-80.424,-4.46],[-80.439,-4.457],[-80.445,-4.446],[-80.449,-4.448],[-80.446,-4.439],[-80.452,-4.432],[-80.449,-4.42],[-80.454,-4.408],[-80.448,-4.403],[-80.452,-4.399],[-80.451,-4.394],[-80.447,-4.396],[-80.446,-4.393],[-80.454,-4.389],[-80.445,-4.371],[-80.446,-4.368],[-80.436,-4.363],[-80.429,-4.351],[-80.431,-4.345],[-80.424,-4.33],[-80.397,-4.301],[-80.391,-4.298],[-80.391,-4.295],[-80.368,-4.282],[-80.368,-4.27],[-80.353,-4.259],[-80.353,-4.252],[-80.332,-4.225],[-80.315,-4.211],[-80.307,-4.2],[-80.313,-4.198],[-80.329,-4.215],[-80.339,-4.209],[-80.347,-4.212],[-80.348,-4.218],[-80.354,-4.221],[-80.366,-4.206],[-80.365,-4.2],[-80.368,-4.197],[-80.383,-4.207],[-80.388,-4.203],[-80.41,-4.218],[-80.416,-4.213],[-80.42,-4.203],[-80.434,-4.196],[-80.45,-4.21],[-80.447,-4.122],[-80.465,-4.129],[-80.467,-4.126],[-80.463,-4.12],[-80.464,-4.114],[-80.478,-4.102],[-80.478,-4.094],[-80.485,-4.088],[-80.48,-4.08],[-80.476,-4.081],[-80.472,-4.076],[-80.476,-4.065],[-80.474,-4.059],[-80.482,-4.056],[-80.47,-4.048],[-80.467,-4.035],[-80.46,-4.037],[-80.451,-4.03],[-80.456,-4.017],[-80.447,-4.017],[-80.445,-4.015],[-80.448,-4.01],[-80.441,-4.006],[-80.447,-3.998],[-80.43,-3.99],[-80.426,-3.997],[-80.423,-3.996],[-80.419,-3.99],[-80.412,-3.991],[-80.398,-3.981],[-80.388,-3.99],[-80.382,-3.988],[-80.375,-3.99],[-80.368,-3.983],[-80.363,-3.983],[-80.354,-3.995],[-80.343,-3.996],[-80.338,-3.993],[-80.328,-4.002],[-80.324,-4.011],[-80.308,-4.013],[-80.305,-4.016],[-80.299,-4.017],[-80.29,-4.011],[-80.285,-4.013],[-80.281,-4.009],[-80.273,-4.008],[-80.261,-3.997],[-80.248,-3.97],[-80.241,-3.968],[-80.237,-3.963],[-80.241,-3.958],[-80.236,-3.949],[-80.233,-3.948],[-80.229,-3.955],[-80.22,-3.952],[-80.219,-3.957],[-80.216,-3.956],[-80.212,-3.951],[-80.198,-3.946],[-80.185,-3.932],[-80.187,-3.929],[-80.18,-3.925],[-80.174,-3.926],[-80.164,-3.922],[-80.158,-3.913],[-80.14,-3.913],[-80.128,-3.896],[-80.127,-3.888],[-80.136,-3.889],[-80.159,-3.872],[-80.157,-3.863],[-80.16,-3.86],[-80.155,-3.858],[-80.154,-3.849],[-80.161,-3.842],[-80.163,-3.827],[-80.16,-3.824],[-80.162,-3.819],[-80.16,-3.803],[-80.172,-3.791],[-80.176,-3.793],[-80.185,-3.775],[-80.193,-3.775],[-80.189,-3.763],[-80.192,-3.759],[-80.189,-3.752],[-80.192,-3.749],[-80.183,-3.751],[-80.188,-3.743],[-80.18,-3.741],[-80.184,-3.736],[-80.18,-3.736],[-80.183,-3.731],[-80.18,-3.728],[-80.186,-3.721],[-80.185,-3.716],[-80.194,-3.709],[-80.2,-3.689],[-80.192,-3.677],[-80.192,-3.668],[-80.187,-3.664],[-80.187,-3.632],[-80.19,-3.626],[-80.199,-3.62],[-80.191,-3.613],[-80.19,-3.606],[-80.192,-3.597],[-80.199,-3.592],[-80.212,-3.592],[-80.219,-3.575],[-80.211,-3.567],[-80.209,-3.553],[-80.205,-3.553],[-80.211,-3.539],[-80.207,-3.535],[-80.212,-3.526],[-80.216,-3.525],[-80.211,-3.52],[-80.218,-3.511],[-80.216,-3.5],[-80.229,-3.502],[-80.233,-3.489],[-80.237,-3.486],[-80.24,-3.489],[-80.241,-3.486],[-80.245,-3.488],[-80.243,-3.481],[-80.245,-3.478],[-80.24,-3.477],[-80.243,-3.467],[-80.232,-3.452],[-80.222,-3.446],[-80.222,-3.44],[-80.219,-3.442],[-80.211,-3.44],[-80.202,-3.444],[-80.2,-3.442],[-80.198,-3.445],[-80.192,-3.442],[-80.183,-3.443],[-80.17,-3.438],[-80.167,-3.433],[-80.153,-3.434],[-80.123,-3.422],[-80.121,-3.423],[-80.124,-3.429],[-80.132,-3.432],[-80.135,-3.44],[-80.128,-3.445],[-80.132,-3.439],[-80.127,-3.437],[-80.126,-3.432],[-80.122,-3.432],[-80.123,-3.427],[-80.12,-3.423],[-80.115,-3.421],[-80.096,-3.425],[-80.07,-3.421],[-80.063,-3.417],[-80.06,-3.409],[-80.052,-3.418],[-80.054,-3.422],[-80.048,-3.423],[-80.045,-3.43],[-80.042,-3.428],[-80.046,-3.425],[-80.046,-3.419],[-80.049,-3.423],[-80.053,-3.422],[-80.051,-3.418],[-80.06,-3.406],[-80.058,-3.396],[-80.048,-3.397],[-80.044,-3.393],[-80.041,-3.394],[-80.035,-3.405],[-80.028,-3.408],[-80.027,-3.413],[-80.021,-3.408],[-80.019,-3.413],[-80.011,-3.416],[-80.009,-3.413],[-80.013,-3.411],[-80.011,-3.405],[-80.002,-3.407],[-79.996,-3.413],[-79.994,-3.407],[-80.006,-3.404],[-79.994,-3.389],[-80.007,-3.372],[-80.016,-3.372],[-80.019,-3.362],[-80.009,-3.365],[-80.005,-3.372],[-79.992,-3.367],[-79.983,-3.377],[-79.986,-3.379],[-79.985,-3.385],[-79.979,-3.386],[-79.986,-3.383],[-79.982,-3.38],[-79.982,-3.372],[-79.991,-3.366],[-80.006,-3.37],[-80.009,-3.363],[-80.014,-3.364],[-80.034,-3.348],[-80.029,-3.313],[-80.022,-3.313],[-80.008,-3.322],[-80.008,-3.333],[-80.004,-3.335],[-80.006,-3.342],[-79.999,-3.347],[-80.005,-3.34],[-80.003,-3.335],[-80.007,-3.332],[-80.007,-3.322],[-80.022,-3.309],[-80.023,-3.302],[-80.016,-3.295],[-80.01,-3.305],[-80.001,-3.309],[-79.998,-3.305],[-80.005,-3.306],[-80.01,-3.303],[-80.013,-3.295],[-80.009,-3.286],[-80.002,-3.285],[-79.999,-3.28],[-79.992,-3.288],[-79.988,-3.286],[-79.988,-3.281],[-79.985,-3.281],[-79.987,-3.279],[-79.984,-3.274],[-79.981,-3.273],[-79.982,-3.277],[-79.977,-3.274],[-79.974,-3.276],[-79.974,-3.272],[-79.979,-3.276],[-79.982,-3.276],[-79.981,-3.273],[-79.985,-3.274],[-79.989,-3.285],[-79.992,-3.286],[-79.998,-3.28],[-80.004,-3.285],[-80.009,-3.285],[-80.002,-3.273],[-80.004,-3.271],[-80.002,-3.255],[-79.999,-3.253],[-80,-3.241],[-79.994,-3.239],[-80,-3.237],[-79.997,-3.228],[-79.988,-3.22],[-79.976,-3.217],[-79.977,-3.21],[-79.971,-3.202],[-79.952,-3.192],[-79.954,-3.191],[-79.95,-3.183],[-79.938,-3.18],[-79.943,-3.172],[-79.937,-3.161],[-79.932,-3.161],[-79.931,-3.158],[-79.916,-3.165],[-79.917,-3.163],[-79.911,-3.165],[-79.909,-3.163],[-79.899,-3.123],[-79.901,-3.108],[-79.895,-3.085],[-79.893,-3.053],[-79.892,-3.076],[-79.878,-3.074],[-79.873,-3.078],[-79.875,-3.072],[-79.881,-3.068],[-79.866,-3.054],[-79.846,-3.025],[-79.844,-3.013],[-79.847,-2.98],[-79.852,-2.978],[-79.853,-2.974],[-79.852,-2.881],[-79.849,-2.878],[-79.837,-2.886],[-79.847,-2.878],[-79.838,-2.87],[-79.829,-2.853],[-79.828,-2.845],[-79.824,-2.843],[-79.824,-2.829],[-79.819,-2.822],[-79.818,-2.794],[-79.81,-2.789],[-79.808,-2.783],[-79.805,-2.782],[-79.803,-2.785],[-79.802,-2.78],[-79.806,-2.777],[-79.799,-2.769],[-79.802,-2.767],[-79.801,-2.762],[-79.795,-2.755],[-79.798,-2.748],[-79.796,-2.739],[-79.793,-2.738],[-79.794,-2.716],[-79.775,-2.711],[-79.773,-2.708],[-79.773,-2.703],[-79.775,-2.709],[-79.78,-2.708],[-79.783,-2.7],[-79.79,-2.694],[-79.794,-2.668],[-79.782,-2.658],[-79.768,-2.656],[-79.766,-2.652],[-79.747,-2.647],[-79.745,-2.649],[-79.734,-2.643],[-79.717,-2.606],[-79.725,-2.571],[-79.717,-2.57],[-79.699,-2.575],[-79.686,-2.567],[-79.678,-2.556],[-79.677,-2.544],[-79.682,-2.537],[-79.673,-2.537],[-79.668,-2.53],[-79.674,-2.517],[-79.683,-2.514],[-79.685,-2.508],[-79.674,-2.502],[-79.666,-2.502],[-79.675,-2.502],[-79.704,-2.512],[-79.723,-2.502],[-79.696,-2.486],[-79.7,-2.486],[-79.734,-2.503],[-79.733,-2.508],[-79.736,-2.512],[-79.745,-2.513],[-79.761,-2.522],[-79.772,-2.521],[-79.783,-2.499],[-79.796,-2.483],[-79.797,-2.449],[-79.8,-2.438],[-79.813,-2.414],[-79.833,-2.396],[-79.832,-2.367],[-79.825,-2.347],[-79.851,-2.346],[-79.86,-2.389],[-79.861,-2.411],[-79.856,-2.432],[-79.866,-2.455],[-79.872,-2.486],[-79.879,-2.511],[-79.887,-2.526],[-79.889,-2.545],[-79.898,-2.574],[-79.913,-2.586],[-79.918,-2.586],[-79.917,-2.578],[-79.907,-2.566],[-79.907,-2.56],[-79.901,-2.55],[-79.9,-2.539],[-79.903,-2.533],[-79.9,-2.523],[-79.892,-2.519],[-79.888,-2.509],[-79.893,-2.496],[-79.901,-2.492],[-79.901,-2.486],[-79.896,-2.49],[-79.89,-2.487],[-79.887,-2.489],[-79.883,-2.482],[-79.877,-2.479],[-79.879,-2.464],[-79.882,-2.463],[-79.878,-2.451],[-79.89,-2.43],[-79.897,-2.426],[-79.898,-2.419],[-79.876,-2.418],[-79.879,-2.413],[-79.89,-2.409],[-79.889,-2.402],[-79.894,-2.39],[-79.887,-2.38],[-79.891,-2.374],[-79.889,-2.381],[-79.896,-2.395],[-79.902,-2.39],[-79.9,-2.378],[-79.913,-2.376],[-79.923,-2.36],[-79.915,-2.357],[-79.911,-2.35],[-79.915,-2.344],[-79.911,-2.332],[-79.916,-2.321],[-79.908,-2.307],[-79.912,-2.297],[-79.903,-2.288],[-79.872,-2.287],[-79.869,-2.283],[-79.873,-2.271],[-79.87,-2.265],[-79.875,-2.269],[-79.871,-2.282],[-79.875,-2.287],[-79.881,-2.284],[-79.894,-2.286],[-79.905,-2.283],[-79.914,-2.275],[-79.909,-2.257],[-79.914,-2.249],[-79.91,-2.243],[-79.915,-2.225],[-79.925,-2.226],[-79.927,-2.232],[-79.933,-2.231],[-79.932,-2.228],[-79.94,-2.235],[-79.958,-2.231],[-79.969,-2.246],[-79.979,-2.248],[-79.982,-2.252],[-79.98,-2.263],[-79.974,-2.27],[-79.979,-2.269],[-79.986,-2.274],[-79.989,-2.272],[-79.99,-2.28],[-79.996,-2.289],[-80.003,-2.286],[-79.997,-2.291],[-79.999,-2.298],[-79.982,-2.308],[-79.98,-2.312],[-79.979,-2.335],[-79.968,-2.335],[-79.982,-2.345],[-79.989,-2.346],[-80.006,-2.343],[-80.011,-2.331],[-80.015,-2.334],[-80.027,-2.331],[-80.031,-2.337],[-80.02,-2.352],[-80.027,-2.356],[-80.03,-2.363],[-80.03,-2.382],[-80.034,-2.392],[-80.049,-2.405],[-80.056,-2.402],[-80.065,-2.39],[-80.072,-2.402],[-80.084,-2.399],[-80.089,-2.406],[-80.097,-2.406],[-80.101,-2.412],[-80.096,-2.414],[-80.096,-2.419],[-80.085,-2.42],[-80.082,-2.424],[-80.081,-2.427],[-80.09,-2.44],[-80.09,-2.445],[-80.077,-2.46],[-80.09,-2.472],[-80.082,-2.489],[-80.098,-2.508],[-80.101,-2.502],[-80.101,-2.521],[-80.107,-2.529],[-80.149,-2.572],[-80.154,-2.568],[-80.151,-2.54],[-80.156,-2.536],[-80.158,-2.525],[-80.143,-2.513],[-80.145,-2.505],[-80.144,-2.513],[-80.15,-2.52],[-80.157,-2.521],[-80.159,-2.526],[-80.162,-2.525],[-80.163,-2.502],[-80.169,-2.503],[-80.171,-2.497],[-80.178,-2.493],[-80.177,-2.489],[-80.179,-2.492],[-80.189,-2.492],[-80.197,-2.496],[-80.203,-2.512],[-80.201,-2.518],[-80.198,-2.521],[-80.192,-2.519],[-80.182,-2.532],[-80.173,-2.535],[-80.181,-2.549],[-80.188,-2.553],[-80.206,-2.528],[-80.215,-2.526],[-80.221,-2.535],[-80.225,-2.529],[-80.232,-2.53],[-80.22,-2.536],[-80.222,-2.541],[-80.213,-2.53],[-80.207,-2.53],[-80.198,-2.539],[-80.19,-2.554],[-80.18,-2.551],[-80.174,-2.553],[-80.161,-2.562],[-80.159,-2.568],[-80.173,-2.589],[-80.173,-2.597],[-80.198,-2.6],[-80.214,-2.61],[-80.214,-2.604],[-80.22,-2.598],[-80.219,-2.587],[-80.2,-2.594],[-80.22,-2.585],[-80.222,-2.597],[-80.221,-2.601],[-80.216,-2.603],[-80.219,-2.613],[-80.215,-2.619],[-80.225,-2.632],[-80.242,-2.64],[-80.244,-2.645],[-80.25,-2.646],[-80.255,-2.642],[-80.257,-2.644],[-80.253,-2.683],[-80.241,-2.706],[-80.249,-2.739],[-80.258,-2.743],[-80.302,-2.724],[-80.315,-2.715],[-80.369,-2.67],[-80.394,-2.638],[-80.416,-2.645],[-80.436,-2.641],[-80.445,-2.63],[-80.45,-2.63],[-80.495,-2.574],[-80.562,-2.508],[-80.626,-2.448],[-80.683,-2.403],[-80.689,-2.402],[-80.694,-2.406],[-80.718,-2.392],[-80.724,-2.391],[-80.725,-2.394],[-80.736,-2.391],[-80.744,-2.393],[-80.76,-2.388],[-80.776,-2.389],[-80.798,-2.378],[-80.802,-2.379],[-80.848,-2.338],[-80.871,-2.324],[-80.882,-2.323],[-80.889,-2.327],[-80.891,-2.338],[-80.899,-2.333],[-80.896,-2.316],[-80.915,-2.294],[-80.917,-2.282],[-81.008,-2.189],[-80.998,-2.184],[-80.988,-2.185],[-80.984,-2.189],[-80.986,-2.194],[-80.974,-2.204],[-80.954,-2.202],[-80.943,-2.218],[-80.929,-2.221],[-80.919,-2.219],[-80.91,-2.221],[-80.882,-2.206],[-80.877,-2.207],[-80.872,-2.2],[-80.853,-2.196],[-80.838,-2.184],[-80.828,-2.167],[-80.825,-2.167],[-80.817,-2.156],[-80.81,-2.156],[-80.808,-2.159],[-80.798,-2.156],[-80.759,-2.122],[-80.748,-2.103],[-80.736,-2.062],[-80.737,-2.026],[-80.739,-2.02],[-80.743,-2.021],[-80.75,-2.012],[-80.752,-1.998],[-80.757,-1.993],[-80.752,-1.982],[-80.754,-1.98],[-80.759,-1.983],[-80.763,-1.976],[-80.755,-1.97],[-80.742,-1.969],[-80.73,-1.955],[-80.727,-1.926],[-80.734,-1.887],[-80.751,-1.835],[-80.76,-1.817],[-80.757,-1.812],[-80.772,-1.755],[-80.791,-1.722],[-80.807,-1.706],[-80.809,-1.696],[-80.813,-1.693],[-80.811,-1.685],[-80.828,-1.645],[-80.836,-1.631],[-80.845,-1.627],[-80.845,-1.61],[-80.855,-1.6],[-80.847,-1.596],[-80.841,-1.584],[-80.842,-1.567],[-80.838,-1.567],[-80.835,-1.561],[-80.82,-1.563],[-80.815,-1.561],[-80.811,-1.539],[-80.818,-1.521],[-80.816,-1.51],[-80.809,-1.51],[-80.808,-1.501],[-80.804,-1.496],[-80.799,-1.498],[-80.793,-1.494],[-80.795,-1.488],[-80.792,-1.479],[-80.779,-1.485],[-80.768,-1.476],[-80.763,-1.459],[-80.767,-1.439],[-80.755,-1.43],[-80.752,-1.423],[-80.755,-1.402],[-80.762,-1.389],[-80.754,-1.385],[-80.739,-1.367],[-80.739,-1.357],[-80.762,-1.312],[-80.846,-1.211],[-80.878,-1.155],[-80.912,-1.059],[-80.907,-1.057],[-80.904,-1.039],[-80.893,-1.036],[-80.874,-1.019],[-80.86,-0.995],[-80.855,-0.994],[-80.84,-0.976],[-80.83,-0.957],[-80.815,-0.954],[-80.804,-0.96],[-80.788,-0.959],[-80.764,-0.944],[-80.744,-0.943],[-80.724,-0.936],[-80.726,-0.94],[-80.718,-0.947],[-80.72,-0.95],[-80.695,-0.948],[-80.683,-0.943],[-80.664,-0.928],[-80.658,-0.927],[-80.652,-0.941],[-80.631,-0.947],[-80.623,-0.946],[-80.586,-0.929],[-80.558,-0.899],[-80.54,-0.87],[-80.529,-0.835],[-80.507,-0.74],[-80.497,-0.721],[-80.469,-0.639],[-80.458,-0.626],[-80.451,-0.61],[-80.43,-0.603],[-80.425,-0.595],[-80.41,-0.591],[-80.413,-0.583],[-80.423,-0.572],[-80.433,-0.57],[-80.437,-0.566],[-80.444,-0.517],[-80.46,-0.456],[-80.471,-0.444],[-80.478,-0.442],[-80.484,-0.418],[-80.491,-0.408],[-80.493,-0.385],[-80.488,-0.365],[-80.476,-0.369],[-80.457,-0.358],[-80.44,-0.341],[-80.427,-0.333],[-80.416,-0.314],[-80.412,-0.315],[-80.408,-0.311],[-80.399,-0.295],[-80.384,-0.241],[-80.379,-0.232],[-80.374,-0.226],[-80.357,-0.219],[-80.345,-0.21],[-80.326,-0.171],[-80.314,-0.185],[-80.302,-0.188],[-80.293,-0.186],[-80.269,-0.164],[-80.266,-0.166],[-80.265,-0.161],[-80.229,-0.133],[-80.182,-0.083],[-80.18,-0.085],[-80.182,-0.083],[-80.177,-0.075],[-80.156,-0.064],[-80.142,-0.048],[-80.132,-0.035],[-80.126,-0.02],[-80.101,0.009],[-80.095,0.02],[-80.088,0.049],[-80.075,0.046],[-80.068,0.051],[-80.039,0.129],[-80.031,0.179],[-80.036,0.315],[-80.042,0.351],[-80.042,0.364],[-80.035,0.37],[-80.03,0.362],[-80.008,0.346],[-79.996,0.316],[-79.991,0.282],[-79.997,0.266],[-79.997,0.25],[-80.001,0.244],[-79.994,0.237],[-79.998,0.233],[-79.992,0.22],[-79.99,0.219],[-79.986,0.232],[-79.979,0.215],[-79.963,0.206],[-79.968,0.196],[-79.985,0.191],[-79.989,0.176],[-79.983,0.174],[-79.98,0.178],[-79.968,0.182],[-79.954,0.201],[-79.948,0.202],[-79.944,0.208],[-79.937,0.233],[-79.946,0.241],[-79.95,0.24],[-79.954,0.25],[-79.946,0.26],[-79.934,0.255],[-79.946,0.268],[-79.955,0.266],[-79.963,0.273],[-79.971,0.275],[-79.974,0.279],[-79.972,0.284],[-79.967,0.284],[-79.967,0.288],[-79.974,0.29],[-79.977,0.288],[-79.979,0.292],[-79.985,0.293],[-79.987,0.33],[-79.983,0.337],[-79.98,0.366],[-79.987,0.39],[-79.999,0.404],[-80.015,0.406],[-80.04,0.432],[-80.048,0.459],[-80.054,0.468],[-80.046,0.489],[-80.047,0.493],[-80.042,0.495],[-80.039,0.503],[-80.032,0.508],[-80.024,0.507],[-80.018,0.514],[-80.006,0.551],[-80.01,0.557],[-80.005,0.568],[-80.015,0.578],[-80.046,0.634],[-80.061,0.644],[-80.067,0.652],[-80.073,0.654],[-80.087,0.648],[-80.092,0.658],[-80.103,0.694],[-80.095,0.715],[-80.1,0.752],[-80.092,0.776],[-80.05,0.826],[-80.049,0.818],[-80.019,0.818],[-80.013,0.821],[-80.01,0.818],[-79.989,0.817],[-79.952,0.827],[-79.917,0.857],[-79.905,0.853],[-79.882,0.871],[-79.877,0.869],[-79.877,0.865],[-79.868,0.864],[-79.841,0.879],[-79.835,0.878],[-79.839,0.877],[-79.838,0.88],[-79.81,0.894],[-79.744,0.961],[-79.732,0.967],[-79.709,0.968],[-79.649,0.997],[-79.617,0.992],[-79.608,0.985],[-79.579,0.988],[-79.559,0.996],[-79.553,0.994],[-79.425,1.071],[-79.396,1.083],[-79.393,1.083],[-79.387,1.073],[-79.355,1.069],[-79.323,1.075],[-79.304,1.082],[-79.289,1.078],[-79.259,1.087],[-79.257,1.077],[-79.246,1.073],[-79.171,1.093],[-79.13,1.121],[-79.089,1.168],[-79.089,1.172],[-79.064,1.21],[-79.051,1.221],[-79.045,1.236],[-79.047,1.241],[-79.032,1.247],[-79.005,1.272],[-78.996,1.265],[-78.994,1.256],[-78.982,1.251],[-78.957,1.221],[-78.946,1.226],[-78.928,1.225],[-78.929,1.231],[-78.941,1.244],[-78.948,1.244],[-78.957,1.249],[-78.963,1.254],[-78.97,1.269],[-78.983,1.271],[-78.983,1.276],[-78.977,1.297],[-78.962,1.32],[-78.936,1.343],[-78.933,1.335],[-78.946,1.319],[-78.944,1.31],[-78.942,1.323],[-78.933,1.33],[-78.93,1.349],[-78.908,1.376],[-78.896,1.371],[-78.899,1.364],[-78.905,1.366],[-78.897,1.364],[-78.897,1.36],[-78.905,1.359],[-78.901,1.349],[-78.907,1.346],[-78.912,1.334],[-78.909,1.334],[-78.906,1.345],[-78.901,1.347],[-78.904,1.357],[-78.892,1.356],[-78.896,1.341],[-78.904,1.335],[-78.901,1.328],[-78.91,1.309],[-78.905,1.313],[-78.904,1.304],[-78.896,1.301],[-78.891,1.307],[-78.895,1.314],[-78.891,1.319],[-78.882,1.304],[-78.872,1.296],[-78.851,1.301],[-78.843,1.292],[-78.831,1.289],[-78.82,1.292],[-78.807,1.288],[-78.813,1.296],[-78.806,1.302],[-78.797,1.302],[-78.785,1.293],[-78.788,1.301],[-78.782,1.302],[-78.784,1.312],[-78.785,1.314],[-78.787,1.311],[-78.784,1.304],[-78.789,1.305],[-78.793,1.302],[-78.798,1.309],[-78.801,1.307],[-78.803,1.312],[-78.799,1.32],[-78.805,1.323],[-78.803,1.316],[-78.806,1.307],[-78.817,1.299],[-78.83,1.297],[-78.831,1.307],[-78.826,1.302],[-78.824,1.314],[-78.819,1.317],[-78.828,1.315],[-78.825,1.322],[-78.828,1.329],[-78.833,1.332],[-78.83,1.337],[-78.835,1.34],[-78.846,1.339],[-78.844,1.348],[-78.848,1.355],[-78.826,1.379],[-78.818,1.371],[-78.816,1.366],[-78.82,1.364],[-78.815,1.367],[-78.826,1.38],[-78.826,1.386],[-78.83,1.386],[-78.834,1.378],[-78.838,1.383],[-78.84,1.387],[-78.837,1.394],[-78.838,1.405],[-78.836,1.407],[-78.831,1.403],[-78.829,1.405],[-78.812,1.403],[-78.808,1.41],[-78.809,1.42],[-78.803,1.426],[-78.804,1.416],[-78.793,1.404],[-78.784,1.404],[-78.781,1.389],[-78.756,1.392],[-78.743,1.376]]],[[[-81.085,-1.275],[-81.082,-1.272],[-81.084,-1.27],[-81.08,-1.269],[-81.08,-1.263],[-81.075,-1.259],[-81.066,-1.263],[-81.066,-1.267],[-81.057,-1.273],[-81.057,-1.277],[-81.05,-1.285],[-81.059,-1.289],[-81.061,-1.284],[-81.069,-1.283],[-81.073,-1.278],[-81.083,-1.279],[-81.085,-1.275]]],[[[-90.361,-1.232],[-90.363,-1.234],[-90.364,-1.231],[-90.361,-1.232]]],[[[-90.511,-1.316],[-90.5,-1.298],[-90.495,-1.296],[-90.496,-1.287],[-90.489,-1.279],[-90.488,-1.252],[-90.485,-1.247],[-90.482,-1.248],[-90.479,-1.232],[-90.468,-1.23],[-90.464,-1.238],[-90.455,-1.239],[-90.438,-1.227],[-90.428,-1.225],[-90.427,-1.22],[-90.421,-1.222],[-90.421,-1.233],[-90.403,-1.239],[-90.394,-1.246],[-90.381,-1.248],[-90.371,-1.26],[-90.359,-1.263],[-90.353,-1.276],[-90.357,-1.278],[-90.361,-1.293],[-90.365,-1.296],[-90.364,-1.3],[-90.38,-1.311],[-90.379,-1.315],[-90.387,-1.333],[-90.398,-1.34],[-90.399,-1.344],[-90.407,-1.344],[-90.426,-1.358],[-90.455,-1.36],[-90.474,-1.346],[-90.485,-1.343],[-90.489,-1.345],[-90.498,-1.338],[-90.499,-1.331],[-90.507,-1.327],[-90.511,-1.316]]],[[[-90.281,-0.398],[-90.292,-0.401],[-90.293,-0.394],[-90.286,-0.389],[-90.28,-0.389],[-90.276,-0.391],[-90.277,-0.397],[-90.281,-0.398]]],[[[-79.985,0.175],[-79.987,0.176],[-79.983,0.19],[-79.98,0.193],[-79.97,0.192],[-79.971,0.182],[-79.985,0.175]]],[[[-79.969,0.214],[-79.979,0.22],[-79.984,0.234],[-79.971,0.242],[-79.966,0.238],[-79.971,0.227],[-79.967,0.216],[-79.969,0.214]]],[[[-79.964,0.212],[-79.968,0.213],[-79.971,0.227],[-79.965,0.236],[-79.969,0.243],[-79.968,0.248],[-79.962,0.251],[-79.958,0.247],[-79.953,0.225],[-79.964,0.212]]],[[[-79.982,0.235],[-79.982,0.238],[-79.974,0.24],[-79.982,0.235]]],[[[-90.299,-0.476],[-90.295,-0.468],[-90.298,-0.462],[-90.296,-0.455],[-90.281,-0.442],[-90.283,-0.435],[-90.29,-0.436],[-90.29,-0.432],[-90.284,-0.427],[-90.289,-0.417],[-90.294,-0.414],[-90.276,-0.411],[-90.272,-0.424],[-90.261,-0.439],[-90.258,-0.445],[-90.26,-0.447],[-90.252,-0.454],[-90.248,-0.465],[-90.271,-0.482],[-90.293,-0.484],[-90.299,-0.476]]],[[[-90.372,-0.426],[-90.375,-0.422],[-90.371,-0.419],[-90.369,-0.421],[-90.372,-0.426]]],[[[-79.986,0.259],[-79.99,0.265],[-79.987,0.271],[-79.981,0.263],[-79.986,0.259]]],[[[-79.97,0.283],[-79.976,0.288],[-79.969,0.288],[-79.967,0.286],[-79.97,0.283]]],[[[-79.977,0.288],[-79.975,0.284],[-79.984,0.291],[-79.98,0.292],[-79.977,0.288]]],[[[-89.974,0.31],[-89.977,0.314],[-89.977,0.327],[-89.972,0.338],[-89.955,0.347],[-89.949,0.347],[-89.94,0.341],[-89.934,0.324],[-89.944,0.3],[-89.95,0.298],[-89.956,0.3],[-89.946,0.306],[-89.945,0.316],[-89.948,0.318],[-89.956,0.317],[-89.962,0.311],[-89.96,0.305],[-89.963,0.304],[-89.974,0.31]]],[[[-80.001,0.364],[-80.002,0.362],[-80.019,0.371],[-80.033,0.391],[-80.041,0.397],[-80.038,0.398],[-80.039,0.403],[-80.041,0.399],[-80.044,0.403],[-80.038,0.404],[-79.996,0.389],[-79.994,0.373],[-80.001,0.364]]],[[[-80.05,0.397],[-80.052,0.391],[-80.048,0.384],[-80.043,0.385],[-80.046,0.38],[-80.053,0.393],[-80.05,0.397]]],[[[-80.055,0.416],[-80.061,0.421],[-80.062,0.432],[-80.059,0.448],[-80.054,0.453],[-80.058,0.446],[-80.053,0.434],[-80.053,0.424],[-80.046,0.419],[-80.055,0.416]]],[[[-78.956,1.228],[-78.95,1.227],[-78.95,1.223],[-78.957,1.223],[-78.956,1.228]]],[[[-78.821,1.42],[-78.819,1.427],[-78.811,1.427],[-78.818,1.409],[-78.823,1.417],[-78.821,1.42]]],[[[-78.828,1.416],[-78.831,1.41],[-78.84,1.417],[-78.845,1.43],[-78.839,1.434],[-78.823,1.433],[-78.828,1.416]]],[[[-78.865,1.385],[-78.87,1.375],[-78.867,1.387],[-78.876,1.401],[-78.871,1.407],[-78.859,1.404],[-78.859,1.398],[-78.864,1.394],[-78.86,1.384],[-78.865,1.385]]],[[[-78.871,1.414],[-78.87,1.409],[-78.877,1.403],[-78.869,1.385],[-78.884,1.378],[-78.888,1.395],[-78.893,1.398],[-78.884,1.411],[-78.881,1.428],[-78.883,1.447],[-78.877,1.453],[-78.868,1.451],[-78.849,1.439],[-78.855,1.434],[-78.851,1.429],[-78.857,1.431],[-78.855,1.427],[-78.864,1.414],[-78.861,1.41],[-78.867,1.408],[-78.871,1.414]]],[[[-78.86,1.384],[-78.863,1.395],[-78.86,1.395],[-78.858,1.404],[-78.862,1.405],[-78.86,1.41],[-78.863,1.413],[-78.854,1.425],[-78.855,1.431],[-78.852,1.428],[-78.849,1.43],[-78.843,1.415],[-78.839,1.412],[-78.843,1.4],[-78.842,1.393],[-78.846,1.38],[-78.868,1.375],[-78.866,1.384],[-78.86,1.384]]],[[[-78.902,1.304],[-78.905,1.309],[-78.904,1.318],[-78.898,1.327],[-78.902,1.334],[-78.89,1.344],[-78.885,1.315],[-78.887,1.314],[-78.89,1.32],[-78.893,1.319],[-78.896,1.315],[-78.891,1.308],[-78.898,1.3],[-78.902,1.304]]],[[[-78.829,1.327],[-78.828,1.311],[-78.837,1.312],[-78.84,1.303],[-78.843,1.306],[-78.854,1.307],[-78.855,1.311],[-78.861,1.311],[-78.859,1.321],[-78.862,1.312],[-78.856,1.308],[-78.869,1.309],[-78.879,1.315],[-78.877,1.344],[-78.872,1.354],[-78.86,1.367],[-78.839,1.373],[-78.85,1.354],[-78.846,1.346],[-78.848,1.337],[-78.835,1.338],[-78.837,1.334],[-78.829,1.327]]],[[[-90.06,-0.799],[-90.045,-0.8],[-90.039,-0.806],[-90.033,-0.807],[-90.035,-0.809],[-90.03,-0.818],[-90.032,-0.823],[-90.028,-0.826],[-90.032,-0.838],[-90.056,-0.839],[-90.091,-0.826],[-90.091,-0.818],[-90.083,-0.81],[-90.089,-0.8],[-90.06,-0.799]]],[[[-89.345,-0.821],[-89.351,-0.822],[-89.353,-0.827],[-89.359,-0.827],[-89.363,-0.842],[-89.362,-0.854],[-89.375,-0.87],[-89.379,-0.88],[-89.394,-0.896],[-89.399,-0.914],[-89.41,-0.923],[-89.428,-0.926],[-89.432,-0.933],[-89.437,-0.935],[-89.441,-0.933],[-89.45,-0.938],[-89.489,-0.939],[-89.522,-0.956],[-89.536,-0.955],[-89.537,-0.951],[-89.561,-0.952],[-89.562,-0.949],[-89.572,-0.948],[-89.578,-0.942],[-89.583,-0.943],[-89.596,-0.936],[-89.604,-0.936],[-89.615,-0.924],[-89.627,-0.92],[-89.626,-0.91],[-89.621,-0.901],[-89.61,-0.9],[-89.613,-0.893],[-89.611,-0.888],[-89.582,-0.873],[-89.571,-0.864],[-89.571,-0.86],[-89.557,-0.856],[-89.556,-0.851],[-89.542,-0.845],[-89.539,-0.84],[-89.541,-0.835],[-89.537,-0.83],[-89.542,-0.829],[-89.541,-0.818],[-89.525,-0.82],[-89.522,-0.826],[-89.52,-0.823],[-89.506,-0.823],[-89.501,-0.821],[-89.502,-0.819],[-89.482,-0.82],[-89.467,-0.8],[-89.47,-0.799],[-89.472,-0.787],[-89.464,-0.78],[-89.465,-0.772],[-89.461,-0.773],[-89.459,-0.77],[-89.459,-0.763],[-89.464,-0.76],[-89.46,-0.753],[-89.457,-0.757],[-89.447,-0.748],[-89.442,-0.749],[-89.437,-0.737],[-89.427,-0.735],[-89.428,-0.733],[-89.419,-0.726],[-89.408,-0.725],[-89.402,-0.716],[-89.39,-0.72],[-89.388,-0.713],[-89.377,-0.712],[-89.362,-0.703],[-89.363,-0.695],[-89.352,-0.685],[-89.339,-0.687],[-89.337,-0.691],[-89.334,-0.688],[-89.317,-0.693],[-89.315,-0.69],[-89.307,-0.689],[-89.3,-0.698],[-89.28,-0.707],[-89.273,-0.703],[-89.27,-0.697],[-89.261,-0.693],[-89.252,-0.697],[-89.255,-0.704],[-89.253,-0.712],[-89.245,-0.711],[-89.241,-0.714],[-89.241,-0.719],[-89.242,-0.724],[-89.252,-0.73],[-89.256,-0.745],[-89.274,-0.753],[-89.283,-0.778],[-89.307,-0.791],[-89.31,-0.804],[-89.319,-0.813],[-89.329,-0.819],[-89.342,-0.818],[-89.345,-0.821]]],[[[-90.55,-0.63],[-90.542,-0.615],[-90.543,-0.611],[-90.538,-0.607],[-90.54,-0.597],[-90.531,-0.584],[-90.535,-0.576],[-90.534,-0.565],[-90.526,-0.558],[-90.516,-0.556],[-90.511,-0.543],[-90.515,-0.535],[-90.512,-0.531],[-90.497,-0.532],[-90.489,-0.529],[-90.484,-0.523],[-90.476,-0.521],[-90.47,-0.523],[-90.469,-0.52],[-90.451,-0.511],[-90.427,-0.513],[-90.415,-0.505],[-90.393,-0.507],[-90.391,-0.513],[-90.387,-0.511],[-90.381,-0.513],[-90.373,-0.509],[-90.371,-0.514],[-90.366,-0.516],[-90.359,-0.511],[-90.362,-0.5],[-90.36,-0.495],[-90.356,-0.494],[-90.348,-0.496],[-90.337,-0.492],[-90.336,-0.496],[-90.331,-0.498],[-90.328,-0.496],[-90.328,-0.501],[-90.323,-0.496],[-90.315,-0.497],[-90.306,-0.492],[-90.299,-0.494],[-90.298,-0.497],[-90.276,-0.487],[-90.273,-0.487],[-90.273,-0.49],[-90.265,-0.49],[-90.25,-0.482],[-90.247,-0.5],[-90.243,-0.5],[-90.236,-0.524],[-90.228,-0.533],[-90.221,-0.539],[-90.202,-0.546],[-90.197,-0.553],[-90.182,-0.56],[-90.169,-0.572],[-90.172,-0.587],[-90.175,-0.588],[-90.175,-0.594],[-90.182,-0.601],[-90.184,-0.608],[-90.177,-0.631],[-90.18,-0.634],[-90.181,-0.646],[-90.188,-0.654],[-90.187,-0.661],[-90.183,-0.66],[-90.179,-0.671],[-90.196,-0.681],[-90.194,-0.691],[-90.206,-0.702],[-90.213,-0.7],[-90.215,-0.695],[-90.223,-0.695],[-90.225,-0.702],[-90.221,-0.704],[-90.221,-0.708],[-90.227,-0.709],[-90.227,-0.714],[-90.231,-0.716],[-90.235,-0.742],[-90.249,-0.748],[-90.297,-0.746],[-90.307,-0.742],[-90.312,-0.744],[-90.314,-0.749],[-90.309,-0.751],[-90.314,-0.757],[-90.305,-0.762],[-90.308,-0.765],[-90.315,-0.767],[-90.332,-0.761],[-90.344,-0.767],[-90.341,-0.763],[-90.349,-0.763],[-90.354,-0.765],[-90.356,-0.775],[-90.364,-0.774],[-90.375,-0.766],[-90.397,-0.774],[-90.398,-0.771],[-90.406,-0.771],[-90.411,-0.766],[-90.413,-0.768],[-90.412,-0.763],[-90.427,-0.754],[-90.433,-0.754],[-90.446,-0.745],[-90.449,-0.749],[-90.451,-0.742],[-90.456,-0.735],[-90.463,-0.732],[-90.467,-0.722],[-90.474,-0.724],[-90.485,-0.722],[-90.485,-0.716],[-90.49,-0.717],[-90.502,-0.708],[-90.513,-0.71],[-90.526,-0.704],[-90.535,-0.696],[-90.537,-0.691],[-90.535,-0.686],[-90.542,-0.683],[-90.535,-0.676],[-90.541,-0.665],[-90.541,-0.657],[-90.545,-0.655],[-90.548,-0.647],[-90.544,-0.641],[-90.545,-0.632],[-90.55,-0.63]]]]}}]}